{"type": "FeatureCollection", "features": [{"type": "Feature", "id": 321553592, "geometry": {"type": "Point", "coordinates": [-122.203514, 47.617297]}, "properties": {}}, {"type": "Feature", "id": 321553593, "geometry": {"type": "Point", "coordinates": [-122.205044, 47.617276]}, "properties": {}}, {"type": "Feature", "id": 321553594, "geometry": {"type": "Point", "coordinates": [-122.205151, 47.617255]}, "properties": {}}, {"type": "Feature", "id": 321553595, "geometry": {"type": "Point", "coordinates": [-122.205217, 47.617207]}, "properties": {}}, {"type": "Feature", "id": 321553596, "geometry": {"type": "Point", "coordinates": [-122.205247, 47.617134]}, "properties": {}}, {"type": "Feature", "id": 321553597, "geometry": {"type": "Point", "coordinates": [-122.205212, 47.615202]}, "properties": {}}, {"type": "Feature", "id": 321553598, "geometry": {"type": "Point", "coordinates": [-122.204375, 47.615215]}, "properties": {}}, {"type": "Feature", "id": 321553599, "geometry": {"type": "Point", "coordinates": [-122.204358, 47.614557]}, "properties": {}}, {"type": "Feature", "id": 321553600, "geometry": {"type": "Point", "coordinates": [-122.204587, 47.614553]}, "properties": {}}, {"type": "Feature", "id": 321553601, "geometry": {"type": "Point", "coordinates": [-122.204566, 47.613984]}, "properties": {}}, {"type": "Feature", "id": 321553602, "geometry": {"type": "Point", "coordinates": [-122.203233, 47.614003]}, "properties": {}}, {"type": "Feature", "id": 321553603, "geometry": {"type": "Point", "coordinates": [-122.203281, 47.615308]}, "properties": {}}, {"type": "Feature", "id": 321553604, "geometry": {"type": "Point", "coordinates": [-122.202981, 47.615313]}, "properties": {}}, {"type": "Feature", "id": 321553605, "geometry": {"type": "Point", "coordinates": [-122.20298, 47.615246]}, "properties": {}}, {"type": "Feature", "id": 321553613, "geometry": {"type": "Point", "coordinates": [-122.202092, 47.615674]}, "properties": {}}, {"type": "Feature", "id": 321553614, "geometry": {"type": "Point", "coordinates": [-122.202116, 47.615674]}, "properties": {}}, {"type": "Feature", "id": 321553615, "geometry": {"type": "Point", "coordinates": [-122.202118, 47.615739]}, "properties": {}}, {"type": "Feature", "id": 321553616, "geometry": {"type": "Point", "coordinates": [-122.201895, 47.615741]}, "properties": {}}, {"type": "Feature", "id": 321553617, "geometry": {"type": "Point", "coordinates": [-122.20191, 47.616139]}, "properties": {}}, {"type": "Feature", "id": 321553618, "geometry": {"type": "Point", "coordinates": [-122.202821, 47.616126]}, "properties": {}}, {"type": "Feature", "id": 321553619, "geometry": {"type": "Point", "coordinates": [-122.202829, 47.615988]}, "properties": {}}, {"type": "Feature", "id": 321553620, "geometry": {"type": "Point", "coordinates": [-122.203127, 47.615985]}, "properties": {}}, {"type": "Feature", "id": 340165820, "geometry": {"type": "Point", "coordinates": [-122.204369, 47.615036]}, "properties": {"entrance": "yes", "level": "1"}}, {"type": "Feature", "id": 340166647, "geometry": {"type": "Point", "coordinates": [-122.205235, 47.616219]}, "properties": {}}, {"type": "Feature", "id": 340166649, "geometry": {"type": "Point", "coordinates": [-122.205208, 47.616219]}, "properties": {}}, {"type": "Feature", "id": 340166650, "geometry": {"type": "Point", "coordinates": [-122.205208, 47.616201]}, "properties": {}}, {"type": "Feature", "id": 340166651, "geometry": {"type": "Point", "coordinates": [-122.20518, 47.616201]}, "properties": {}}, {"type": "Feature", "id": 340166654, "geometry": {"type": "Point", "coordinates": [-122.205179, 47.616182]}, "properties": {}}, {"type": "Feature", "id": 340166656, "geometry": {"type": "Point", "coordinates": [-122.205079, 47.616183]}, "properties": {}}, {"type": "Feature", "id": 340166658, "geometry": {"type": "Point", "coordinates": [-122.205074, 47.615935]}, "properties": {}}, {"type": "Feature", "id": 340166661, "geometry": {"type": "Point", "coordinates": [-122.205234, 47.615934]}, "properties": {}}, {"type": "Feature", "id": 340166886, "geometry": {"type": "Point", "coordinates": [-122.205077, 47.616102]}, "properties": {"entrance": "yes", "level": "1"}}, {"type": "Feature", "id": 1437183004, "geometry": {"type": "Point", "coordinates": [-122.20193, 47.615392]}, "properties": {"addr:city": "Bellevue", "addr:housenumber": "408", "addr:postcode": "98004-5002", "addr:state": "WA", "addr:street": "Bellevue Way Northeast", "brand": "Xfinity", "brand:wikidata": "Q5151002", "brand:wikipedia": "en:Xfinity", "name": "Xfinity", "shop": "telecommunication"}}, {"type": "Feature", "id": 1738808307, "geometry": {"type": "Point", "coordinates": [-122.203214, 47.616311]}, "properties": {}}, {"type": "Feature", "id": 3073269015, "geometry": {"type": "Point", "coordinates": [-122.201999, 47.615893]}, "properties": {"addr:city": "Bellevue", "addr:housenumber": "401", "addr:postcode": "98004", "addr:street": "Bellevue Square", "alt_name": "Cheesecake Factory", "amenity": "restaurant", "brand": "The Cheesecake Factory", "brand:wikidata": "Q1045842", "brand:wikipedia": "en:The Cheesecake Factory", "check_date": "2023-09-23", "cuisine": "american", "name": "The Cheesecake Factory", "opening_hours": "Mo-Fr 11:00-24:00; Sa,Su 10:00-24:00", "phone": "+1-425-450-6000", "wheelchair": "yes"}}, {"type": "Feature", "id": 3329479140, "geometry": {"type": "Point", "coordinates": [-122.203961, 47.615286]}, "properties": {"addr:floor": "2", "addr:housenumber": "247", "addr:postcode": "98004", "addr:street": "Bellevue Square", "brand": "Oakley", "brand:wikidata": "Q161906", "brand:wikipedia": "en:Oakley, Inc.", "check_date": "2023-09-24", "level": "1", "name": "Oakley", "phone": "+1-425-455-0278", "shop": "optician"}}, {"type": "Feature", "id": 3518618754, "geometry": {"type": "Point", "coordinates": [-122.202485, 47.61613]}, "properties": {"entrance": "yes", "level": "1"}}, {"type": "Feature", "id": 3813344489, "geometry": {"type": "Point", "coordinates": [-122.203754, 47.615757]}, "properties": {"addr:city": "Bellevue", "addr:floor": "2", "addr:housenumber": "226", "addr:postcode": "98004", "addr:street": "Bellevue Square", "amenity": "cafe", "brand": "Starbucks", "brand:wikidata": "Q37158", "brand:wikipedia": "en:Starbucks", "check_date": "2023-09-24", "contact:website": "https://www.starbucks.com/store-locator/store/18691/bellevue-square-226-bellevue-square-bellevue-wa-980045020-us", "cuisine": "coffee_shop", "internet_access": "wlan", "level": "1", "name": "Starbucks", "official_name": "Starbucks Coffee", "takeaway": "yes"}}, {"type": "Feature", "id": 3832089158, "geometry": {"type": "Point", "coordinates": [-122.20526, 47.615567]}, "properties": {"entrance": "yes", "level": "1"}}, {"type": "Feature", "id": 3905077172, "geometry": {"type": "Point", "coordinates": [-122.203872, 47.614265]}, "properties": {"access": "customers", "amenity": "parking", "fee": "no", "parking": "garage"}}, {"type": "Feature", "id": 3905207506, "geometry": {"type": "Point", "coordinates": [-122.205298, 47.616774]}, "properties": {"entrance": "yes", "level": "1"}}, {"type": "Feature", "id": 4112967485, "geometry": {"type": "Point", "coordinates": [-122.204776, 47.616722]}, "properties": {"addr:city": "Bellevue", "addr:floor": "1", "addr:housenumber": "1012", "addr:postcode": "98004", "addr:state": "WA", "addr:street": "Bellevue Square (7807)", "brand": "T-Mobile", "brand:wikidata": "Q3511885", "brand:wikipedia": "en:T-Mobile US", "check_date": "2023-09-24", "level": "0", "name": "T-Mobile", "operator": "T-Mobile", "phone": "+1-425-462-9828", "shop": "mobile_phone", "website": "https://www.t-mobile.com/store/cell-phone-bellevue-wa-815.html", "wheelchair": "yes"}}, {"type": "Feature", "id": 4485958016, "geometry": {"type": "Point", "coordinates": [-122.203097, 47.615532]}, "properties": {"addr:floor": "1", "addr:housenumber": "190", "addr:street": "Bellevue Square", "check_date": "2023-09-24", "level": "0", "name": "Made in Washington", "shop": "gift", "wheelchair": "yes"}}, {"type": "Feature", "id": 4783748282, "geometry": {"type": "Point", "coordinates": [-122.204239, 47.616798]}, "properties": {"addr:floor": "1", "amenity": "cafe", "check_date": "2023-09-24", "level": "0", "name": "Nordstrom eBar", "operator": "Nordstrom", "wheelchair": "yes"}}, {"type": "Feature", "id": 4892511529, "geometry": {"type": "Point", "coordinates": [-122.203252, 47.614572]}, "properties": {}}, {"type": "Feature", "id": 4892574512, "geometry": {"type": "Point", "coordinates": [-122.203503, 47.616973]}, "properties": {"entrance": "yes", "level": "1"}}, {"type": "Feature", "id": 4892574514, "geometry": {"type": "Point", "coordinates": [-122.203498, 47.616744]}, "properties": {}}, {"type": "Feature", "id": 4892574515, "geometry": {"type": "Point", "coordinates": [-122.204541, 47.616732]}, "properties": {}}, {"type": "Feature", "id": 4892574516, "geometry": {"type": "Point", "coordinates": [-122.204543, 47.616811]}, "properties": {}}, {"type": "Feature", "id": 4892574517, "geometry": {"type": "Point", "coordinates": [-122.205236, 47.616803]}, "properties": {}}, {"type": "Feature", "id": 4892579797, "geometry": {"type": "Point", "coordinates": [-122.202089, 47.615541]}, "properties": {}}, {"type": "Feature", "id": 4892579798, "geometry": {"type": "Point", "coordinates": [-122.202108, 47.615541]}, "properties": {}}, {"type": "Feature", "id": 4892579799, "geometry": {"type": "Point", "coordinates": [-122.202107, 47.615481]}, "properties": {}}, {"type": "Feature", "id": 4892579800, "geometry": {"type": "Point", "coordinates": [-122.201887, 47.615482]}, "properties": {}}, {"type": "Feature", "id": 4892579801, "geometry": {"type": "Point", "coordinates": [-122.20188, 47.615213]}, "properties": {}}, {"type": "Feature", "id": 4892579802, "geometry": {"type": "Point", "coordinates": [-122.202764, 47.615204]}, "properties": {}}, {"type": "Feature", "id": 4892579803, "geometry": {"type": "Point", "coordinates": [-122.202765, 47.615248]}, "properties": {}}, {"type": "Feature", "id": 5032793346, "geometry": {"type": "Point", "coordinates": [-122.204634, 47.61572]}, "properties": {"addr:city": "Bellevue", "addr:floor": "2", "addr:housenumber": "2040", "addr:postcode": "98004", "addr:street": "Bellevue Square", "amenity": "fast_food", "brand": "Auntie Anne's", "brand:wikidata": "Q4822010", "brand:wikipedia": "en:Auntie Anne's", "check_date": "2023-09-24", "cuisine": "pretzel", "level": "1", "name": "Auntie Anne's", "takeaway": "yes", "wheelchair": "yes"}}, {"type": "Feature", "id": 5338124422, "geometry": {"type": "Point", "coordinates": [-122.205021, 47.615959]}, "properties": {"addr:floor": "2", "addr:housenumber": "2086", "addr:street": "Bellevue Square", "brand": "Ecco", "brand:wikidata": "Q1280255", "brand:wikipedia": "en:ECCO", "check_date": "2023-09-24", "level": "1", "name": "Ecco", "shop": "shoes", "wheelchair": "yes"}}, {"type": "Feature", "id": 5338124423, "geometry": {"type": "Point", "coordinates": [-122.204639, 47.615961]}, "properties": {"addr:floor": "2", "addr:housenumber": "2036", "addr:street": "Bellevue Square", "check_date": "2023-09-24", "level": "1", "name": "Ex Officio", "shop": "clothes", "wheelchair": "yes"}}, {"type": "Feature", "id": 5338124424, "geometry": {"type": "Point", "coordinates": [-122.205017, 47.615713]}, "properties": {"addr:housenumber": "2077", "addr:street": "Bellevue Square", "alt_name": "Verizon Wireless", "brand": "Verizon", "brand:wikidata": "Q919641", "brand:wikipedia": "en:Verizon (mobile network)", "check_date": "2023-09-24", "level": "1", "name": "Verizon", "shop": "mobile_phone", "wheelchair": "yes"}}, {"type": "Feature", "id": 5338134721, "geometry": {"type": "Point", "coordinates": [-122.205027, 47.61605]}, "properties": {"addr:housenumber": "2088", "addr:street": "Bellevue Square", "brand": "Pandora", "brand:wikidata": "Q2241604", "brand:wikipedia": "en:Pandora (jewelry)", "check_date": "2023-09-24", "level": "1", "name": "Pandora", "shop": "jewelry", "wheelchair": "yes"}}, {"type": "Feature", "id": 5338134722, "geometry": {"type": "Point", "coordinates": [-122.203904, 47.614998]}, "properties": {"addr:floor": "1", "addr:housenumber": "177", "addr:street": "Bellevue Square", "brand": "Blue Nile", "brand:wikidata": "Q4929570", "brand:wikipedia": "en:Blue Nile (company)", "check_date": "2023-09-24", "level": "0", "name": "Blue Nile", "shop": "jewelry", "wheelchair": "yes"}}, {"type": "Feature", "id": 5338134723, "geometry": {"type": "Point", "coordinates": [-122.204138, 47.61509]}, "properties": {"addr:floor": "1", "addr:housenumber": "166", "addr:street": "Bellevue Square", "amenity": "ice_cream", "brand": "Ben & Jerry's", "brand:wikidata": "Q816412", "brand:wikipedia": "en:Ben & Jerry's", "check_date": "2023-09-24", "cuisine": "ice_cream", "level": "0", "name": "Ben & Jerry's", "wheelchair": "yes"}}, {"type": "Feature", "id": 5338134821, "geometry": {"type": "Point", "coordinates": [-122.205028, 47.61627]}, "properties": {"addr:housenumber": "2002", "addr:street": "Bellevue Square", "amenity": "cafe", "check_date": "2023-09-24", "level": "1", "name": "Woods Coffee", "wheelchair": "yes"}}, {"type": "Feature", "id": 5338134823, "geometry": {"type": "Point", "coordinates": [-122.203913, 47.615087]}, "properties": {"addr:floor": "1", "addr:housenumber": "165", "addr:street": "Bellevue Square", "brand": "Lolli and Pops", "brand:wikidata": "Q108410191", "check_date": "2023-09-24", "level": "0", "name": "Lolli and Pops", "shop": "confectionery", "wheelchair": "yes"}}, {"type": "Feature", "id": 5367088457, "geometry": {"type": "Point", "coordinates": [-122.203789, 47.615666]}, "properties": {"addr:city": "Bellevue", "addr:floor": "1", "addr:housenumber": "126", "addr:postcode": "98004", "addr:street": "Bellevue Square", "amenity": "restaurant", "check_date": "2023-09-24", "cuisine": "american", "level": "0", "name": "Beecher's Handmade Cheese", "phone": "+1-425-777-9171", "website": "https://www.beechershandmadecheese.com/", "wheelchair": "yes"}}, {"type": "Feature", "id": 5652659752, "geometry": {"type": "Point", "coordinates": [-122.204432, 47.615574]}, "properties": {}}, {"type": "Feature", "id": 5652659753, "geometry": {"type": "Point", "coordinates": [-122.204844, 47.61612]}, "properties": {}}, {"type": "Feature", "id": 5652659754, "geometry": {"type": "Point", "coordinates": [-122.202777, 47.615628]}, "properties": {"entrance": "yes"}}, {"type": "Feature", "id": 5652659755, "geometry": {"type": "Point", "coordinates": [-122.203822, 47.615044]}, "properties": {}}, {"type": "Feature", "id": 5652659756, "geometry": {"type": "Point", "coordinates": [-122.20398, 47.616141]}, "properties": {}}, {"type": "Feature", "id": 5652659757, "geometry": {"type": "Point", "coordinates": [-122.203808, 47.614567]}, "properties": {}}, {"type": "Feature", "id": 5652659758, "geometry": {"type": "Point", "coordinates": [-122.203829, 47.615604]}, "properties": {}}, {"type": "Feature", "id": 5652659759, "geometry": {"type": "Point", "coordinates": [-122.204317, 47.615593]}, "properties": {}}, {"type": "Feature", "id": 5652659760, "geometry": {"type": "Point", "coordinates": [-122.204863, 47.616807]}, "properties": {"entrance": "yes"}}, {"type": "Feature", "id": 5652659761, "geometry": {"type": "Point", "coordinates": [-122.203963, 47.615601]}, "properties": {}}, {"type": "Feature", "id": 5652659762, "geometry": {"type": "Point", "coordinates": [-122.203995, 47.616738]}, "properties": {"entrance": "yes"}}, {"type": "Feature", "id": 5652659763, "geometry": {"type": "Point", "coordinates": [-122.204827, 47.615569]}, "properties": {}}, {"type": "Feature", "id": 5752777682, "geometry": {"type": "Point", "coordinates": [-122.202143, 47.615514]}, "properties": {"addr:street": "Bellevue Way Northeast", "amenity": "fast_food", "check_date": "2023-09-24", "level": "-1", "name": "Istanbul Cuisine", "wheelchair": "yes"}}, {"type": "Feature", "id": 5752777691, "geometry": {"type": "Point", "coordinates": [-122.201973, 47.615411]}, "properties": {}}, {"type": "Feature", "id": 5752777692, "geometry": {"type": "Point", "coordinates": [-122.202091, 47.615636]}, "properties": {"entrance": "yes", "level": "0"}}, {"type": "Feature", "id": 5752777706, "geometry": {"type": "Point", "coordinates": [-122.202144, 47.615704]}, "properties": {"addr:street": "Bellevue Way Northeast", "amenity": "fast_food", "check_date": "2023-09-24", "level": "-1", "name": "MIX Poke Bar", "wheelchair": "yes"}}, {"type": "Feature", "id": 5759106921, "geometry": {"type": "Point", "coordinates": [-122.203637, 47.615758]}, "properties": {"addr:floor": "2", "addr:housenumber": "228", "addr:street": "Bellevue Square", "amenity": "restaurant", "check_date": "2023-09-24", "level": "1", "name": "Great State Burger - Bellevue", "opening_hours": "Mo-Sa 09:30-21:30; Su 11:00-19:00"}}, {"type": "Feature", "id": 5842455918, "geometry": {"type": "Point", "coordinates": [-122.204168, 47.616423]}, "properties": {"addr:city": "Bellevue", "addr:floor": "2", "addr:housenumber": "213", "addr:postcode": "98004", "addr:state": "WA", "addr:street": "Bellevue Square", "brand": "Apple Store", "brand:wikidata": "Q421253", "brand:wikipedia": "en:Apple Store", "check_date": "2023-09-24", "level": "1", "name": "Apple Store", "opening_hours": "Mo-Sa 09:30-21:30; Su 11:00-19:00", "operator": "Apple Inc.", "payment:cash": "yes", "payment:credit_cards": "yes", "phone": "+1-425-519-0080", "shop": "electronics", "short_name": "Apple", "website": "https://www.apple.com/retail/bellevuesquare/", "wheelchair": "yes"}}, {"type": "Feature", "id": 5864328985, "geometry": {"type": "Point", "coordinates": [-122.203609, 47.614704]}, "properties": {"addr:floor": "2", "addr:housenumber": "252", "addr:street": "Bellevue Square", "amenity": "restaurant", "check_date": "2023-09-24", "cuisine": "japanese", "email": "bellsquare@kuzuki.com", "level": "1", "name": "Kizuki Ramen & Izakaya - Bellevue Square", "opening_hours": "Mo-Sa 09:30-21:00; Su 11:00-19:00", "phone": "+1-425-454-0885", "website": "http://kuzuki.com", "wheelchair": "yes"}}, {"type": "Feature", "id": 6113553081, "geometry": {"type": "Point", "coordinates": [-122.203277, 47.616747]}, "properties": {}}, {"type": "Feature", "id": 6254896439, "geometry": {"type": "Point", "coordinates": [-122.203245, 47.614333]}, "properties": {"entrance": "yes"}}, {"type": "Feature", "id": 6254896440, "geometry": {"type": "Point", "coordinates": [-122.203266, 47.614322]}, "properties": {}}, {"type": "Feature", "id": 6254896441, "geometry": {"type": "Point", "coordinates": [-122.203273, 47.614555]}, "properties": {}}, {"type": "Feature", "id": 6254896442, "geometry": {"type": "Point", "coordinates": [-122.203601, 47.614551]}, "properties": {}}, {"type": "Feature", "id": 6254896445, "geometry": {"type": "Point", "coordinates": [-122.203442, 47.614429]}, "properties": {"addr:city": "Bellevue", "addr:floor": "2", "addr:housenumber": "2100", "addr:postcode": "98004", "addr:state": "WA", "addr:street": "Bellevue Square", "brand": "Athleta", "brand:wikidata": "Q105722424", "check_date": "2023-09-24", "clothes": "women", "fair_trade": "yes", "level": "1", "name": "Athleta", "organic": "yes", "shop": "clothes", "wheelchair": "yes"}}, {"type": "Feature", "id": 6254896446, "geometry": {"type": "Point", "coordinates": [-122.203442, 47.614188]}, "properties": {"addr:city": "Bellevue", "addr:floor": "2", "addr:housenumber": "2110", "addr:postcode": "98004", "addr:street": "Bellevue Square", "brand": "Uniqlo", "brand:wikidata": "Q26070", "brand:wikipedia": "en:Uniqlo", "check_date": "2023-09-24", "level": "1", "name": "Uniqlo", "phone": "+1-877-486-4756", "shop": "clothes", "website": "https://www.uniqlo.com/us/en/stores-details/?StoreID=10200083&source=stores", "wheelchair": "yes"}}, {"type": "Feature", "id": 6254896448, "geometry": {"type": "Point", "coordinates": [-122.20379, 47.614179]}, "properties": {"addr:floor": "2", "addr:housenumber": "2120", "addr:street": "Bellevue Square", "brand": "Zara", "brand:wikidata": "Q147662", "brand:wikipedia": "en:Zara (retailer)", "check_date": "2023-09-24", "level": "1", "name": "Zara", "shop": "clothes", "website": "https://www.zara.com/us/", "wheelchair": "yes"}}, {"type": "Feature", "id": 6254896458, "geometry": {"type": "Point", "coordinates": [-122.203597, 47.615668]}, "properties": {"addr:floor": "1", "check_date": "2023-09-24", "disused:shop": "books", "level": "0"}}, {"type": "Feature", "id": 6597720247, "geometry": {"type": "Point", "coordinates": [-122.203228, 47.616747]}, "properties": {}}, {"type": "Feature", "id": 6597720248, "geometry": {"type": "Point", "coordinates": [-122.203137, 47.616312]}, "properties": {}}, {"type": "Feature", "id": 6597720254, "geometry": {"type": "Point", "coordinates": [-122.203267, 47.614926]}, "properties": {}}, {"type": "Feature", "id": 6597720255, "geometry": {"type": "Point", "coordinates": [-122.203207, 47.614927]}, "properties": {}}, {"type": "Feature", "id": 6597720258, "geometry": {"type": "Point", "coordinates": [-122.203196, 47.614595]}, "properties": {}}, {"type": "Feature", "id": 6597720259, "geometry": {"type": "Point", "coordinates": [-122.203318, 47.614595]}, "properties": {}}, {"type": "Feature", "id": 6597720260, "geometry": {"type": "Point", "coordinates": [-122.203317, 47.614572]}, "properties": {}}, {"type": "Feature", "id": 6597720261, "geometry": {"type": "Point", "coordinates": [-122.204372, 47.615123]}, "properties": {"entrance": "yes"}}, {"type": "Feature", "id": 6597720263, "geometry": {"type": "Point", "coordinates": [-122.2047, 47.61521]}, "properties": {}}, {"type": "Feature", "id": 6597720264, "geometry": {"type": "Point", "coordinates": [-122.204469, 47.615214]}, "properties": {}}, {"type": "Feature", "id": 6597720265, "geometry": {"type": "Point", "coordinates": [-122.204468, 47.61518]}, "properties": {}}, {"type": "Feature", "id": 6597720266, "geometry": {"type": "Point", "coordinates": [-122.2047, 47.615177]}, "properties": {}}, {"type": "Feature", "id": 6690017058, "geometry": {"type": "Point", "coordinates": [-122.204863, 47.616768]}, "properties": {}}, {"type": "Feature", "id": 6690017059, "geometry": {"type": "Point", "coordinates": [-122.205073, 47.616728]}, "properties": {"amenity": "toilets", "check_date": "2023-09-24", "fee": "no", "level": "2", "wheelchair": "yes"}}, {"type": "Feature", "id": 6690017060, "geometry": {"type": "Point", "coordinates": [-122.204519, 47.616086]}, "properties": {"addr:floor": "1", "addr:housenumber": "131", "addr:street": "Bellevue Square", "alt_name": "Jamba Juice", "amenity": "fast_food", "brand": "Jamba", "brand:wikidata": "Q3088784", "brand:wikipedia": "en:Jamba Juice", "check_date": "2023-09-24", "cuisine": "juice", "level": "0", "name": "Jamba", "takeaway": "yes"}}, {"type": "Feature", "id": 6690017061, "geometry": {"type": "Point", "coordinates": [-122.204415, 47.616091]}, "properties": {"addr:floor": "1", "addr:housenumber": "133", "addr:street": "Bellevue Square", "brand": "UNTUCKit", "brand:wikidata": "Q28207006", "brand:wikipedia": "en:Untuckit", "check_date": "2023-09-24", "level": "0", "name": "UNTUCKit", "shop": "clothes"}}, {"type": "Feature", "id": 6690017062, "geometry": {"type": "Point", "coordinates": [-122.204101, 47.616099]}, "properties": {"addr:floor": "1", "addr:housenumber": "139", "addr:street": "Bellevue Square", "brand": "Kate Spade New York", "brand:wikidata": "Q6375797", "brand:wikipedia": "en:Kate Spade New York", "check_date": "2023-09-24", "level": "0", "name": "Kate Spade New York", "shop": "clothes", "short_name": "Kate Spade"}}, {"type": "Feature", "id": 6717812106, "geometry": {"type": "Point", "coordinates": [-122.204741, 47.616086]}, "properties": {"addr:floor": "1", "addr:housenumber": "1031", "addr:street": "Bellevue Square", "amenity": "cafe", "brand": "Happy Lemon", "brand:wikidata": "Q109968422", "check_date": "2023-09-24", "cuisine": "bubble_tea", "level": "0", "name": "Happy Lemon", "takeaway": "yes", "website": "https://happylemonseattle.com/"}}, {"type": "Feature", "id": 6717812107, "geometry": {"type": "Point", "coordinates": [-122.204293, 47.616094]}, "properties": {"addr:floor": "1", "addr:housenumber": "135", "addr:street": "Bellevue Square", "brand": "Allen Edmonds", "brand:wikidata": "Q4731627", "brand:wikipedia": "en:Allen Edmonds", "check_date": "2023-09-24", "level": "0", "name": "Allen Edmonds", "shop": "shoes"}}, {"type": "Feature", "id": 6717812109, "geometry": {"type": "Point", "coordinates": [-122.20444, 47.616183]}, "properties": {"addr:floor": "1", "addr:housenumber": "119", "addr:street": "Bellevue Square", "brand": "Lego", "brand:wikidata": "Q1063455", "brand:wikipedia": "en:The Lego Group", "check_date": "2023-09-24", "level": "0", "name": "Lego", "shop": "toys"}}, {"type": "Feature", "id": 6717812110, "geometry": {"type": "Point", "coordinates": [-122.205034, 47.616464]}, "properties": {"addr:housenumber": "2012", "addr:street": "Bellevue Square", "alt_name": "Soma Intimates", "brand": "Soma", "brand:wikidata": "Q69882213", "check_date": "2023-09-24", "clothes": "underwear;women", "level": "1", "name": "Soma", "shop": "clothes", "website": "https://www.soma.com/"}}, {"type": "Feature", "id": 6717812111, "geometry": {"type": "Point", "coordinates": [-122.205038, 47.616577]}, "properties": {"addr:housenumber": "2016", "addr:street": "Bellevue Square", "brand": "Chico's", "brand:wikidata": "Q5096393", "brand:wikipedia": "en:Chico's FAS", "check_date": "2023-09-24", "level": "1", "name": "Chico's", "shop": "clothes", "website": "https://www.chicos.com/"}}, {"type": "Feature", "id": 6717812112, "geometry": {"type": "Point", "coordinates": [-122.205031, 47.616355]}, "properties": {"addr:housenumber": "2008", "addr:street": "Bellevue Square", "brand": "Eileen Fisher", "brand:wikidata": "Q5349364", "check_date": "2023-09-24", "clothes": "women", "level": "1", "name": "Eileen Fisher", "shop": "clothes", "website": "https://locations.eileenfisher.com/us/wa/bellevue/"}}, {"type": "Feature", "id": 6717812113, "geometry": {"type": "Point", "coordinates": [-122.205033, 47.615523]}, "properties": {"addr:floor": "1", "addr:housenumber": "1065", "addr:street": "Bellevue Square", "brand": "American Eagle Outfitters", "brand:wikidata": "Q2842931", "brand:wikipedia": "en:American Eagle Outfitters", "check_date": "2023-09-24", "clothes": "men;women", "level": "0", "name": "American Eagle Outfitters", "shop": "clothes", "short_name": "American Eagle"}}, {"type": "Feature", "id": 7863598849, "geometry": {"type": "Point", "coordinates": [-122.205256, 47.616667]}, "properties": {}}, {"type": "Feature", "id": 7863598850, "geometry": {"type": "Point", "coordinates": [-122.205299, 47.616748]}, "properties": {}}, {"type": "Feature", "id": 7863598851, "geometry": {"type": "Point", "coordinates": [-122.205323, 47.616748]}, "properties": {}}, {"type": "Feature", "id": 7863598852, "geometry": {"type": "Point", "coordinates": [-122.205322, 47.616692]}, "properties": {}}, {"type": "Feature", "id": 7863598853, "geometry": {"type": "Point", "coordinates": [-122.205281, 47.616692]}, "properties": {}}, {"type": "Feature", "id": 7863598854, "geometry": {"type": "Point", "coordinates": [-122.205281, 47.616667]}, "properties": {}}, {"type": "Feature", "id": 7863598855, "geometry": {"type": "Point", "coordinates": [-122.205299, 47.616802]}, "properties": {}}, {"type": "Feature", "id": 7863598869, "geometry": {"type": "Point", "coordinates": [-122.202818, 47.616065]}, "properties": {}}, {"type": "Feature", "id": 7863598870, "geometry": {"type": "Point", "coordinates": [-122.20283, 47.616065]}, "properties": {}}, {"type": "Feature", "id": 7863598871, "geometry": {"type": "Point", "coordinates": [-122.202787, 47.615988]}, "properties": {}}, {"type": "Feature", "id": 7863796759, "geometry": {"type": "Point", "coordinates": [-122.201884, 47.615411]}, "properties": {}}, {"type": "Feature", "id": 7863796760, "geometry": {"type": "Point", "coordinates": [-122.201974, 47.615482]}, "properties": {}}, {"type": "Feature", "id": 7863848204, "geometry": {"type": "Point", "coordinates": [-122.203245, 47.614333]}, "properties": {"entrance": "yes", "level": "1"}}, {"type": "Feature", "id": 7863848205, "geometry": {"type": "Point", "coordinates": [-122.203245, 47.614322]}, "properties": {"entrance": "yes", "level": "0"}}, {"type": "Feature", "id": 7867283651, "geometry": {"type": "Point", "coordinates": [-122.204569, 47.614058]}, "properties": {"entrance": "yes", "level": "1"}}, {"type": "Feature", "id": 7867283666, "geometry": {"type": "Point", "coordinates": [-122.203233, 47.614035]}, "properties": {"entrance": "yes"}}, {"type": "Feature", "id": 7867283672, "geometry": {"type": "Point", "coordinates": [-122.204846, 47.615208]}, "properties": {}}, {"type": "Feature", "id": 7867283674, "geometry": {"type": "Point", "coordinates": [-122.205219, 47.615527]}, "properties": {}}, {"type": "Feature", "id": 7867283675, "geometry": {"type": "Point", "coordinates": [-122.205261, 47.615527]}, "properties": {}}, {"type": "Feature", "id": 7867283676, "geometry": {"type": "Point", "coordinates": [-122.205232, 47.615866]}, "properties": {}}, {"type": "Feature", "id": 7867283677, "geometry": {"type": "Point", "coordinates": [-122.205266, 47.615866]}, "properties": {}}, {"type": "Feature", "id": 7867283678, "geometry": {"type": "Point", "coordinates": [-122.204573, 47.614167]}, "properties": {"entrance": "yes", "level": "0"}}, {"type": "Feature", "id": 7867319752, "geometry": {"type": "Point", "coordinates": [-122.205243, 47.61701]}, "properties": {"entrance": "yes", "level": "0"}}, {"type": "Feature", "id": 7867319801, "geometry": {"type": "Point", "coordinates": [-122.205077, 47.616121]}, "properties": {"entrance": "yes", "level": "0"}}, {"type": "Feature", "id": 7867319817, "geometry": {"type": "Point", "coordinates": [-122.205241, 47.615527]}, "properties": {"entrance": "yes", "level": "1"}}, {"type": "Feature", "id": 7867319818, "geometry": {"type": "Point", "coordinates": [-122.205241, 47.615567]}, "properties": {}}, {"type": "Feature", "id": 8308802346, "geometry": {"type": "Point", "coordinates": [-122.204466, 47.615826]}, "properties": {"brand": "Nespresso", "brand:wikidata": "Q301301", "brand:wikipedia": "en:Nespresso", "check_date": "2023-09-24", "level": "-1", "name": "Nespresso", "phone": "+1-800-562-1465", "shop": "coffee", "website": "https://www.nespresso.com"}}, {"type": "Feature", "id": 9453310270, "geometry": {"type": "Point", "coordinates": [-122.203755, 47.615998]}, "properties": {"addr:city": "Bellevue", "addr:floor": "2", "addr:housenumber": "216", "addr:postcode": "98004", "addr:street": "Bellevue Square", "brand": "Williams-Sonoma", "brand:wikidata": "Q2581220", "brand:wikipedia": "en:Williams-Sonoma, Inc.", "check_date": "2023-09-24", "level": "1", "name": "Williams-Sonoma", "phone": "+1-425-454-7007", "shop": "houseware", "website": "https://www.williams-sonoma.com/"}}, {"type": "Feature", "id": 9480333519, "geometry": {"type": "Point", "coordinates": [-122.204781, 47.615528]}, "properties": {"addr:floor": "1", "addr:housenumber": "1056", "addr:street": "Bellevue Square", "brand": "Free People", "brand:wikidata": "Q5499945", "brand:wikipedia": "en:Free People", "check_date": "2023-09-24", "level": "0", "name": "Free People", "shop": "clothes"}}, {"type": "Feature", "id": 9480333520, "geometry": {"type": "Point", "coordinates": [-122.20458, 47.615532]}, "properties": {"addr:floor": "1", "addr:housenumber": "1050", "addr:street": "Bellevue Square", "brand": "Aritzia", "brand:wikidata": "Q4791147", "brand:wikipedia": "en:Aritzia", "check_date": "2023-09-24", "clothes": "women", "level": "0", "name": "Aritzia", "shop": "clothes"}}, {"type": "Feature", "id": 9480333521, "geometry": {"type": "Point", "coordinates": [-122.204409, 47.615536]}, "properties": {"addr:floor": "1", "addr:housenumber": "151", "addr:street": "Bellevue Square", "brand": "Janie & Jack", "brand:wikidata": "Q64449634", "brand:wikipedia": "en:Janie and Jack", "check_date": "2023-09-24", "clothes": "children", "level": "0", "name": "Janie & Jack", "shop": "clothes"}}, {"type": "Feature", "id": 9480333522, "geometry": {"type": "Point", "coordinates": [-122.204205, 47.615551]}, "properties": {"addr:floor": "1", "addr:housenumber": "153", "addr:street": "Bellevue Square", "brand": "L'Occitane", "brand:wikidata": "Q1880676", "brand:wikipedia": "en:L'Occitane en Provence", "check_date": "2023-09-24", "level": "0", "name": "L'Occitane", "shop": "cosmetics"}}, {"type": "Feature", "id": 9480333523, "geometry": {"type": "Point", "coordinates": [-122.204099, 47.615552]}, "properties": {"addr:floor": "1", "addr:housenumber": "155", "addr:street": "Bellevue Square", "brand": "Coach", "brand:wikidata": "Q727697", "brand:wikipedia": "en:Coach New York", "check_date": "2023-09-24", "level": "0", "name": "Coach", "shop": "bag", "website": "https://www.coach.com/stores/wa/bellevue/155-bellevue-square"}}, {"type": "Feature", "id": 9480333524, "geometry": {"type": "Point", "coordinates": [-122.203906, 47.615555]}, "properties": {"addr:floor": "1", "addr:housenumber": "159", "addr:street": "Bellevue Square", "brand": "Rodd & Gunn", "brand:wikidata": "Q85797658", "check_date": "2023-09-24", "clothes": "men", "level": "0", "name": "Rodd & Gunn", "shop": "clothes"}}, {"type": "Feature", "id": 9480333525, "geometry": {"type": "Point", "coordinates": [-122.204066, 47.614996]}, "properties": {"addr:floor": "1", "addr:housenumber": "175", "addr:street": "Bellevue Square", "check_date": "2023-09-24", "level": "0", "name": "Mi Tea", "shop": "tea", "wheelchair": "yes"}}, {"type": "Feature", "id": 9480333526, "geometry": {"type": "Point", "coordinates": [-122.203923, 47.614834]}, "properties": {"addr:city": "Bellevue", "addr:floor": "1", "addr:housenumber": "181", "addr:postcode": "98004", "addr:state": "WA", "addr:street": "Bellevue Square", "brand": "Bath & Body Works", "brand:wikidata": "Q810773", "brand:wikipedia": "en:Bath & Body Works", "check_date": "2023-09-24", "level": "0", "name": "Bath & Body Works", "phone": "+1-425-455-8398", "shop": "cosmetics", "wheelchair": "yes"}}, {"type": "Feature", "id": 9480333527, "geometry": {"type": "Point", "coordinates": [-122.203908, 47.614708]}, "properties": {"addr:floor": "1", "addr:housenumber": "183", "addr:street": "Bellevue Square", "brand": "Gap", "brand:wikidata": "Q420822", "brand:wikipedia": "en:Gap Inc.", "check_date": "2023-09-24", "level": "0", "name": "Gap", "shop": "clothes", "wheelchair": "yes"}}, {"type": "Feature", "id": 9480333528, "geometry": {"type": "Point", "coordinates": [-122.203742, 47.614876]}, "properties": {"addr:floor": "1", "addr:housenumber": "156", "addr:street": "Bellevue Square", "brand": "Go! Games & Toys", "brand:wikidata": "Q108312837", "check_date": "2023-09-24", "level": "0", "name": "Go! Games & Toys", "shop": "toys", "wheelchair": "yes"}}, {"type": "Feature", "id": 9480333529, "geometry": {"type": "Point", "coordinates": [-122.203614, 47.614958]}, "properties": {"addr:floor": "2", "addr:housenumber": "244", "addr:street": "Bellevue Square", "brand": "Zumiez", "brand:wikidata": "Q8075252", "brand:wikipedia": "en:Zumiez", "check_date": "2023-09-24", "level": "1", "name": "Zumiez", "shop": "clothes", "wheelchair": "yes"}}, {"type": "Feature", "id": 9480333530, "geometry": {"type": "Point", "coordinates": [-122.203615, 47.615053]}, "properties": {"addr:floor": "2", "addr:housenumber": "242", "addr:street": "Bellevue Square", "brand": "Vans", "brand:wikidata": "Q1135366", "brand:wikipedia": "en:Vans", "check_date": "2023-09-24", "level": "1", "name": "Vans", "shop": "shoes", "wheelchair": "yes"}}, {"type": "Feature", "id": 9480333531, "geometry": {"type": "Point", "coordinates": [-122.20362, 47.615384]}, "properties": {"addr:floor": "2", "addr:housenumber": "234", "addr:street": "Bellevue Square", "check_date": "2023-09-24", "level": "1", "name": "Kraken", "shop": "collector"}}, {"type": "Feature", "id": 9480333532, "geometry": {"type": "Point", "coordinates": [-122.203741, 47.61467]}, "properties": {"addr:floor": "1", "addr:housenumber": "160", "addr:street": "Bellevue Square", "amenity": "restaurant", "check_date": "2023-09-24", "cuisine": "vietnamese", "level": "0", "name": "What the Pho", "wheelchair": "yes"}}, {"type": "Feature", "id": 9480333533, "geometry": {"type": "Point", "coordinates": [-122.203741, 47.614747]}, "properties": {"addr:floor": "1", "addr:housenumber": "158", "addr:street": "Bellevue Square", "brand": "claire's", "brand:wikidata": "Q2974996", "brand:wikipedia": "en:GNC (store)", "check_date": "2023-09-24", "level": "0", "name": "claire's", "shop": "fashion_accessories", "wheelchair": "yes"}}, {"type": "Feature", "id": 9480333534, "geometry": {"type": "Point", "coordinates": [-122.203617, 47.615153]}, "properties": {"addr:floor": "2", "addr:housenumber": "240", "addr:street": "Bellevue Square", "brand": "Abercrombie & Fitch", "brand:wikidata": "Q319344", "brand:wikipedia": "en:Abercrombie & Fitch", "check_date": "2023-09-24", "clothes": "men;women", "level": "1", "name": "Abercrombie & Fitch", "shop": "clothes", "wheelchair": "yes"}}, {"type": "Feature", "id": 9480333535, "geometry": {"type": "Point", "coordinates": [-122.203743, 47.614976]}, "properties": {"addr:floor": "1", "addr:housenumber": "148", "addr:street": "Bellevue Square", "brand": "Sephora", "brand:wikidata": "Q2408041", "brand:wikipedia": "en:Sephora", "check_date": "2023-09-24", "level": "0", "name": "Sephora", "shop": "cosmetics", "wheelchair": "yes"}}, {"type": "Feature", "id": 9480333536, "geometry": {"type": "Point", "coordinates": [-122.203743, 47.615065]}, "properties": {"addr:floor": "1", "addr:housenumber": "146", "addr:street": "Bellevue Square", "brand": "Casper", "brand:wikidata": "Q20539294", "brand:wikipedia": "en:Casper Sleep", "check_date": "2023-09-24", "level": "0", "name": "Casper", "shop": "bed", "wheelchair": "yes"}}, {"type": "Feature", "id": 9480333537, "geometry": {"type": "Point", "coordinates": [-122.203744, 47.615155]}, "properties": {"addr:floor": "1", "addr:housenumber": "144", "addr:street": "Bellevue Square", "brand": "Suitsupply", "brand:wikidata": "Q17149142", "check_date": "2023-09-24", "clothes": "suits", "level": "0", "name": "Suitsupply", "shop": "clothes", "wheelchair": "yes"}}, {"type": "Feature", "id": 9480333538, "geometry": {"type": "Point", "coordinates": [-122.203745, 47.615265]}, "properties": {"addr:floor": "1", "addr:housenumber": "140", "addr:street": "Bellevue Square", "brand": "Lush", "brand:wikidata": "Q1585448", "brand:wikipedia": "en:Lush (company)", "check_date": "2023-09-24", "level": "0", "name": "Lush", "shop": "cosmetics", "wheelchair": "yes"}}, {"type": "Feature", "id": 9480333539, "geometry": {"type": "Point", "coordinates": [-122.20293, 47.615533]}, "properties": {"addr:floor": "1", "brand": "Buckle", "brand:wikidata": "Q4983306", "brand:wikipedia": "en:Buckle (clothing retailer)", "check_date": "2023-09-24", "clothes": "men;women;children", "level": "0", "name": "Buckle", "shop": "clothes"}}, {"type": "Feature", "id": 9480333540, "geometry": {"type": "Point", "coordinates": [-122.203746, 47.615425]}, "properties": {"addr:floor": "1", "addr:housenumber": "138", "addr:street": "Bellevue Square", "brand": "Sunglass Hut", "brand:wikidata": "Q136311", "brand:wikipedia": "en:Sunglass Hut", "check_date": "2023-09-24", "level": "0", "name": "Sunglass Hut", "shop": "optician"}}, {"type": "Feature", "id": 9480333541, "geometry": {"type": "Point", "coordinates": [-122.203746, 47.615474]}, "properties": {"addr:floor": "1", "addr:housenumber": "136", "addr:street": "Bellevue Square", "brand": "Swarovski", "brand:wikidata": "Q611115", "brand:wikipedia": "en:Swarovski", "check_date": "2023-09-24", "level": "0", "name": "Swarovski", "shop": "jewelry"}}, {"type": "Feature", "id": 9480333542, "geometry": {"type": "Point", "coordinates": [-122.203644, 47.615526]}, "properties": {"addr:floor": "1", "addr:housenumber": "134", "addr:street": "Bellevue Square", "brand": "Kiehl's", "brand:wikidata": "Q3196447", "brand:wikipedia": "en:Kiehl's", "check_date": "2023-09-24", "level": "0", "name": "Kiehl's", "shop": "cosmetics"}}, {"type": "Feature", "id": 9480333543, "geometry": {"type": "Point", "coordinates": [-122.203526, 47.615527]}, "properties": {"addr:floor": "1", "addr:housenumber": "196", "addr:street": "Bellevue Square", "check_date": "2023-09-24", "level": "0", "name": "Fireworks", "shop": "gift"}}, {"type": "Feature", "id": 9480333544, "geometry": {"type": "Point", "coordinates": [-122.203371, 47.615529]}, "properties": {"addr:floor": "1", "addr:housenumber": "194", "addr:street": "Bellevue Square", "check_date": "2023-12-10", "clothes": "sports", "level": "0", "name": "TaraShakti", "shop": "clothes"}}, {"type": "Feature", "id": 9480333545, "geometry": {"type": "Point", "coordinates": [-122.203242, 47.61553]}, "properties": {"addr:floor": "1", "addr:housenumber": "192", "addr:street": "Bellevue Square", "check_date": "2023-09-24", "level": "0", "name": "ABLAJ", "shop": "shoes"}}, {"type": "Feature", "id": 9480333546, "geometry": {"type": "Point", "coordinates": [-122.202848, 47.615676]}, "properties": {"addr:floor": "1", "addr:housenumber": "180", "addr:street": "Bellevue Square", "brand": "AT&T", "brand:wikidata": "Q298594", "brand:wikipedia": "en:AT&T Mobility", "check_date": "2023-09-24", "level": "0", "name": "AT&T", "shop": "mobile_phone"}}, {"type": "Feature", "id": 9480333547, "geometry": {"type": "Point", "coordinates": [-122.203055, 47.615673]}, "properties": {"addr:floor": "1", "addr:housenumber": "176", "addr:street": "Bellevue Square", "brand": "Champs Sports", "brand:wikidata": "Q2955924", "brand:wikipedia": "en:Champs Sports", "check_date": "2023-09-24", "level": "0", "name": "Champs Sports", "shop": "sports"}}, {"type": "Feature", "id": 9480333548, "geometry": {"type": "Point", "coordinates": [-122.20388, 47.615814]}, "properties": {"addr:floor": "1", "addr:housenumber": "124", "addr:street": "Bellevue Square", "brand": "VINCE.", "brand:wikidata": "Q7907025", "brand:wikipedia": "en:VINCE.", "check_date": "2023-09-24", "level": "0", "name": "VINCE.", "shop": "clothes"}}, {"type": "Feature", "id": 9480333549, "geometry": {"type": "Point", "coordinates": [-122.203882, 47.615915]}, "properties": {"addr:floor": "1", "addr:housenumber": "122", "addr:street": "Bellevue Square", "brand": "Warby Parker", "brand:wikidata": "Q7968882", "brand:wikipedia": "en:Warby Parker", "check_date": "2023-09-24", "level": "0", "name": "Warby Parker", "shop": "optician"}}, {"type": "Feature", "id": 9480333550, "geometry": {"type": "Point", "coordinates": [-122.204167, 47.61658]}, "properties": {"addr:floor": "2", "addr:housenumber": "205", "addr:street": "Bellevue Square", "check_date": "2023-09-24", "level": "1", "name": "Splendid", "shop": "clothes"}}, {"type": "Feature", "id": 9480333551, "geometry": {"type": "Point", "coordinates": [-122.203887, 47.616105]}, "properties": {"addr:floor": "1", "addr:housenumber": "118", "addr:street": "Bellevue Square", "addr:unit": "A", "brand": "Madewell", "brand:wikidata": "Q64026213", "check_date": "2023-09-24", "clothes": "men;women", "level": "0", "name": "Madewell", "shop": "clothes"}}, {"type": "Feature", "id": 9480333552, "geometry": {"type": "Point", "coordinates": [-122.204278, 47.615482]}, "properties": {"addr:floor": "2", "addr:housenumber": "239", "addr:street": "Bellevue Square", "brand": "Saje", "brand:wikidata": "Q44631749", "check_date": "2023-09-24", "level": "1", "name": "Saje", "shop": "cosmetics"}}, {"type": "Feature", "id": 9480333553, "geometry": {"type": "Point", "coordinates": [-122.203894, 47.61634]}, "properties": {"addr:floor": "1", "addr:housenumber": "110", "addr:street": "Bellevue Square", "brand": "Max Mara", "brand:wikidata": "Q1151774", "brand:wikipedia": "en:Max Mara", "check_date": "2023-09-24", "clothes": "women", "level": "0", "name": "Max Mara", "shop": "clothes"}}, {"type": "Feature", "id": 9480333554, "geometry": {"type": "Point", "coordinates": [-122.203896, 47.616454]}, "properties": {"addr:floor": "1", "addr:housenumber": "108", "addr:street": "Bellevue Square", "brand": "Burberry", "brand:wikidata": "Q390107", "brand:wikipedia": "en:Burberry", "check_date": "2023-09-24", "clothes": "men;women", "level": "0", "name": "Burberry", "shop": "clothes"}}, {"type": "Feature", "id": 9480333555, "geometry": {"type": "Point", "coordinates": [-122.2039, 47.616566]}, "properties": {"addr:floor": "1", "addr:housenumber": "106", "addr:street": "Bellevue Square", "brand": "Tory Burch", "brand:wikidata": "Q19988222", "brand:wikipedia": "en:Tory Burch LLC", "check_date": "2023-09-24", "level": "0", "name": "Tory Burch", "shop": "clothes"}}, {"type": "Feature", "id": 9480333556, "geometry": {"type": "Point", "coordinates": [-122.203902, 47.616678]}, "properties": {"addr:floor": "1", "addr:housenumber": "104", "addr:street": "Bellevue Square", "brand": "Tesla", "brand:wikidata": "Q478214", "brand:wikipedia": "en:Tesla, Inc.", "check_date": "2023-09-24", "level": "0", "name": "Tesla", "shop": "car"}}, {"type": "Feature", "id": 9480333557, "geometry": {"type": "Point", "coordinates": [-122.204086, 47.616654]}, "properties": {"addr:floor": "1", "addr:housenumber": "101", "addr:street": "Bellevue Square", "check_date": "2023-09-24", "level": "0", "name": "Salon 8", "shop": "hairdresser"}}, {"type": "Feature", "id": 9480333558, "geometry": {"type": "Point", "coordinates": [-122.204085, 47.61649]}, "properties": {"addr:floor": "1", "addr:housenumber": "105", "addr:street": "Bellevue Square", "brand": "Tiffany & Company", "brand:wikidata": "Q1066858", "brand:wikipedia": "en:Tiffany & Co.", "check_date": "2023-09-24", "level": "0", "name": "Tiffany & Company", "official_name": "Tiffany & Co.", "shop": "jewelry"}}, {"type": "Feature", "id": 9480333559, "geometry": {"type": "Point", "coordinates": [-122.204085, 47.616351]}, "properties": {"addr:floor": "1", "addr:housenumber": "109", "addr:street": "Bellevue Square", "brand": "Hugo Boss", "brand:wikidata": "Q491627", "brand:wikipedia": "en:Hugo Boss", "check_date": "2023-09-24", "level": "0", "name": "Hugo Boss", "shop": "clothes", "short_name": "Boss"}}, {"type": "Feature", "id": 9480333561, "geometry": {"type": "Point", "coordinates": [-122.204763, 47.616179]}, "properties": {"addr:floor": "1", "addr:housenumber": "1023", "addr:street": "Bellevue Square", "check_date": "2023-09-24", "level": "0", "name": "Escape Outdoors", "shop": "outdoor"}}, {"type": "Feature", "id": 9480333562, "geometry": {"type": "Point", "coordinates": [-122.204767, 47.616335]}, "properties": {"addr:floor": "1", "addr:housenumber": "1019", "addr:street": "Bellevue Square", "check_date": "2023-09-24", "level": "0", "name": "Urbanity", "shop": "clothes"}}, {"type": "Feature", "id": 9480333563, "geometry": {"type": "Point", "coordinates": [-122.204774, 47.61665]}, "properties": {"addr:floor": "1", "addr:housenumber": "1014", "addr:street": "Bellevue Square", "amenity": "doctors", "check_date": "2023-09-24", "level": "0", "name": "Forward", "website": "https://goforward.com"}}, {"type": "Feature", "id": 9480333564, "geometry": {"type": "Point", "coordinates": [-122.204935, 47.616714]}, "properties": {"addr:floor": "1", "addr:housenumber": "1010", "addr:street": "Bellevue Square", "amenity": "fast_food", "brand": "Taco Del Mar", "brand:wikidata": "Q7673972", "brand:wikipedia": "en:Taco del Mar", "check_date": "2023-09-24", "cuisine": "mexican", "level": "0", "name": "Taco Del Mar", "takeaway": "yes"}}, {"type": "Feature", "id": 9480333565, "geometry": {"type": "Point", "coordinates": [-122.204923, 47.616616]}, "properties": {"addr:floor": "1", "addr:housenumber": "1006", "addr:street": "Bellevue Square", "brand": "Sleep Number", "brand:wikidata": "Q7447640", "brand:wikipedia": "en:Sleep Number", "check_date": "2023-09-24", "level": "0", "name": "Sleep Number", "shop": "bed"}}, {"type": "Feature", "id": 9480333566, "geometry": {"type": "Point", "coordinates": [-122.204923, 47.616526]}, "properties": {"addr:floor": "1", "addr:housenumber": "1005", "addr:street": "Bellevue Square", "brand": "PacSun", "brand:wikidata": "Q7121857", "check_date": "2023-09-24", "level": "0", "name": "PacSun", "shop": "clothes"}}, {"type": "Feature", "id": 9480333567, "geometry": {"type": "Point", "coordinates": [-122.204932, 47.616283]}, "properties": {"addr:floor": "1", "addr:housenumber": "1001", "addr:street": "Bellevue Square", "brand": "The North Face", "brand:wikidata": "Q152784", "brand:wikipedia": "en:The North Face", "check_date": "2023-09-24", "clothes": "outdoor", "level": "0", "name": "The North Face", "shop": "clothes"}}, {"type": "Feature", "id": 9480333568, "geometry": {"type": "Point", "coordinates": [-122.204916, 47.616054]}, "properties": {"addr:floor": "1", "addr:housenumber": "1083", "addr:street": "Bellevue Square", "brand": "Camper", "brand:wikidata": "Q1030922", "brand:wikipedia": "en:Camper (company)", "check_date": "2023-09-24", "level": "0", "name": "Camper", "shop": "shoes"}}, {"type": "Feature", "id": 9480333569, "geometry": {"type": "Point", "coordinates": [-122.204904, 47.615856]}, "properties": {"addr:floor": "1", "addr:housenumber": "1070", "addr:street": "Bellevue Square", "brand": "Anthropologie", "brand:wikidata": "Q4773903", "brand:wikipedia": "en:Anthropologie", "check_date": "2023-09-24", "clothes": "women", "level": "0", "name": "Anthropologie", "shop": "clothes"}}, {"type": "Feature", "id": 9480333570, "geometry": {"type": "Point", "coordinates": [-122.204531, 47.615624]}, "properties": {"addr:floor": "1", "addr:housenumber": "1045", "addr:street": "Bellevue Square", "brand": "Indochino", "brand:wikidata": "Q64448127", "brand:wikipedia": "en:Indochino", "check_date": "2023-09-24", "clothes": "suits", "level": "0", "name": "Indochino", "shop": "clothes"}}, {"type": "Feature", "id": 9480333571, "geometry": {"type": "Point", "coordinates": [-122.204737, 47.615621]}, "properties": {"addr:floor": "1", "addr:housenumber": "1041", "addr:street": "Bellevue Square", "check_date": "2023-09-24", "level": "0", "name": "Sweet Factory", "shop": "confectionery"}}, {"type": "Feature", "id": 9480333572, "geometry": {"type": "Point", "coordinates": [-122.204737, 47.615715]}, "properties": {"addr:floor": "1", "addr:housenumber": "1038", "addr:street": "Bellevue Square", "amenity": "fast_food", "brand": "Cinnabon", "brand:wikidata": "Q1092539", "brand:wikipedia": "en:Cinnabon", "check_date": "2023-09-24", "cuisine": "dessert", "level": "0", "name": "Cinnabon", "takeaway": "yes"}}, {"type": "Feature", "id": 9480333573, "geometry": {"type": "Point", "coordinates": [-122.204738, 47.615777]}, "properties": {"addr:floor": "1", "addr:housenumber": "1033", "addr:street": "Bellevue Square", "brand": "Eddie Bauer", "brand:wikidata": "Q842174", "brand:wikipedia": "en:Eddie Bauer", "check_date": "2023-09-24", "level": "0", "name": "Eddie Bauer", "shop": "clothes"}}, {"type": "Feature", "id": 9480333574, "geometry": {"type": "Point", "coordinates": [-122.204094, 47.615997]}, "properties": {"addr:floor": "1", "addr:housenumber": "141", "addr:street": "Bellevue Square", "brand": "Ted Baker", "brand:wikidata": "Q2913458", "brand:wikipedia": "en:Ted Baker", "check_date": "2023-09-24", "level": "0", "name": "Ted Baker", "shop": "clothes"}}, {"type": "Feature", "id": 9480333575, "geometry": {"type": "Point", "coordinates": [-122.204067, 47.615684]}, "properties": {"addr:floor": "1", "addr:housenumber": "143", "addr:street": "Bellevue Square", "brand": "Ben Bridge", "brand:wikidata": "Q20708050", "brand:wikipedia": "en:Ben Bridge Jeweler", "check_date": "2023-09-24", "level": "0", "name": "Ben Bridge", "shop": "jewelry"}}, {"type": "Feature", "id": 9480333576, "geometry": {"type": "Point", "coordinates": [-122.20415, 47.615668]}, "properties": {"addr:floor": "1", "addr:housenumber": "143", "addr:street": "Bellevue Square", "brand": "Rolex", "brand:wikidata": "Q62288", "brand:wikipedia": "en:Rolex", "check_date": "2023-09-24", "description": "Inside Ben Bridge", "level": "0", "name": "Rolex", "shop": "watches"}}, {"type": "Feature", "id": 9480333577, "geometry": {"type": "Point", "coordinates": [-122.204085, 47.616187]}, "properties": {"addr:floor": "1", "addr:housenumber": "111", "addr:street": "Bellevue Square", "brand": "Canada Goose", "brand:wikidata": "Q2988422", "brand:wikipedia": "en:Canada Goose (clothing)", "check_date": "2023-09-24", "clothes": "outdoor", "level": "0", "name": "Canada Goose", "shop": "clothes"}}, {"type": "Feature", "id": 9480333579, "geometry": {"type": "Point", "coordinates": [-122.203969, 47.614959]}, "properties": {"addr:floor": "2", "addr:housenumber": "263", "addr:street": "Bellevue Square", "brand": "Victoria's Secret", "brand:wikidata": "Q332477", "brand:wikipedia": "en:Victoria's Secret", "check_date": "2023-09-24", "clothes": "underwear;women", "level": "1", "name": "Victoria's Secret", "shop": "clothes", "wheelchair": "yes"}}, {"type": "Feature", "id": 9480333580, "geometry": {"type": "Point", "coordinates": [-122.203619, 47.615326]}, "properties": {"addr:floor": "2", "addr:housenumber": "236", "addr:street": "Bellevue Square", "brand": "Na Hoku", "brand:wikidata": "Q108410100", "check_date": "2023-09-24", "level": "1", "name": "Na Hoku", "shop": "jewelry"}}, {"type": "Feature", "id": 9480333581, "geometry": {"type": "Point", "coordinates": [-122.203615, 47.615466]}, "properties": {"addr:floor": "2", "addr:housenumber": "232", "addr:street": "Bellevue Square", "brand": "MAC Cosmetics", "brand:wikidata": "Q2624442", "brand:wikipedia": "en:MAC Cosmetics", "check_date": "2023-09-24", "level": "1", "name": "MAC Cosmetics", "shop": "cosmetics", "short_name": "M\u00b7A\u00b7C"}}, {"type": "Feature", "id": 9480333582, "geometry": {"type": "Point", "coordinates": [-122.203416, 47.615466]}, "properties": {"addr:floor": "2", "addr:housenumber": "278", "addr:street": "Bellevue Square", "brand": "Fabletics", "brand:wikidata": "Q16992933", "check_date": "2023-09-24", "clothes": "women", "level": "1", "name": "Fabletics", "shop": "clothes"}}, {"type": "Feature", "id": 9480333583, "geometry": {"type": "Point", "coordinates": [-122.203303, 47.615466]}, "properties": {"addr:floor": "2", "addr:housenumber": "276", "addr:street": "Bellevue Square", "amenity": "fast_food", "brand": "Panda Express", "brand:wikidata": "Q1358690", "brand:wikipedia": "en:Panda Express", "check_date": "2023-09-24", "cuisine": "chinese", "level": "1", "name": "Panda Express", "takeaway": "yes"}}, {"type": "Feature", "id": 9480333584, "geometry": {"type": "Point", "coordinates": [-122.203159, 47.615466]}, "properties": {"addr:floor": "2", "addr:housenumber": "274", "addr:street": "Bellevue Square", "addr:unit": "A", "check_date": "2023-09-24", "level": "1", "name": "ROYCE'", "shop": "confectionery"}}, {"type": "Feature", "id": 9480333585, "geometry": {"type": "Point", "coordinates": [-122.203055, 47.615466]}, "properties": {"addr:floor": "2", "addr:housenumber": "274", "addr:street": "Bellevue Square", "check_date": "2023-09-24", "level": "1", "name": "Optical Illusions", "shop": "optician"}}, {"type": "Feature", "id": 9480333586, "geometry": {"type": "Point", "coordinates": [-122.20288, 47.615466]}, "properties": {"addr:floor": "2", "addr:housenumber": "268", "addr:street": "Bellevue Square", "brand": "Loft", "brand:wikidata": "Q62075137", "check_date": "2023-09-24", "clothes": "women", "level": "1", "name": "Loft", "shop": "clothes"}}, {"type": "Feature", "id": 9480333587, "geometry": {"type": "Point", "coordinates": [-122.202868, 47.615762]}, "properties": {"addr:floor": "2", "addr:housenumber": "266", "addr:street": "Bellevue Square", "check_date": "2023-12-10", "disused:shop": "gift", "level": "1"}}, {"type": "Feature", "id": 9480333588, "geometry": {"type": "Point", "coordinates": [-122.203009, 47.615762]}, "properties": {"addr:floor": "2", "addr:housenumber": "264", "addr:street": "Bellevue Square", "brand": "Fuego", "brand:wikidata": "Q108409891", "check_date": "2023-09-24", "level": "1", "name": "Fuego", "shop": "gift"}}, {"type": "Feature", "id": 9480333589, "geometry": {"type": "Point", "coordinates": [-122.203275, 47.61576]}, "properties": {"addr:floor": "2", "addr:housenumber": "260", "addr:street": "Bellevue Square", "check_date": "2023-09-24", "level": "1", "name": "Seattle Team Shop", "shop": "collector"}}, {"type": "Feature", "id": 9480333590, "geometry": {"type": "Point", "coordinates": [-122.20352, 47.615758]}, "properties": {"addr:floor": "2", "addr:housenumber": "256", "addr:street": "Bellevue Square", "check_date": "2023-09-24", "level": "1", "name": "Lady Yum", "shop": "bakery"}}, {"type": "Feature", "id": 9480333591, "geometry": {"type": "Point", "coordinates": [-122.203754, 47.615879]}, "properties": {"addr:floor": "2", "addr:housenumber": "224", "addr:street": "Bellevue Square", "brand": "Lululemon", "brand:wikidata": "Q6702957", "brand:wikipedia": "en:Lululemon Athletica", "check_date": "2023-09-24", "clothes": "men;women", "level": "1", "name": "Lululemon", "official_name": "Lululemon Athletica", "shop": "clothes"}}, {"type": "Feature", "id": 9480333592, "geometry": {"type": "Point", "coordinates": [-122.203757, 47.616199]}, "properties": {"addr:floor": "2", "addr:housenumber": "212", "addr:street": "Bellevue Square", "brand": "Pottery Barn", "brand:wikidata": "Q3400126", "brand:wikipedia": "en:Pottery Barn", "check_date": "2023-09-24", "level": "1", "name": "Pottery Barn", "shop": "furniture"}}, {"type": "Feature", "id": 9480333593, "geometry": {"type": "Point", "coordinates": [-122.203758, 47.616334]}, "properties": {"addr:floor": "2", "addr:housenumber": "208", "addr:street": "Bellevue Square", "brand": "Banana Republic", "brand:wikidata": "Q806085", "brand:wikipedia": "en:Banana Republic", "check_date": "2023-09-24", "clothes": "men;women", "level": "1", "name": "Banana Republic", "shop": "clothes"}}, {"type": "Feature", "id": 9480333594, "geometry": {"type": "Point", "coordinates": [-122.203759, 47.616561]}, "properties": {"addr:floor": "2", "addr:housenumber": "204", "addr:street": "Bellevue Square", "brand": "White House Black Market", "brand:wikidata": "Q7994858", "brand:wikipedia": "en:White House Black Market", "check_date": "2023-09-24", "level": "1", "name": "White House Black Market", "shop": "clothes"}}, {"type": "Feature", "id": 9480333595, "geometry": {"type": "Point", "coordinates": [-122.20376, 47.616667]}, "properties": {"addr:floor": "2", "addr:housenumber": "202", "addr:street": "Bellevue Square", "brand": "Everything But Water", "check_date": "2023-09-24", "clothes": "swimwear", "level": "1", "name": "Everything But Water", "shop": "clothes"}}, {"type": "Feature", "id": 9480333596, "geometry": {"type": "Point", "coordinates": [-122.204167, 47.61666]}, "properties": {"addr:floor": "2", "addr:housenumber": "201", "addr:street": "Bellevue Square", "brand": "Tommy Bahama", "brand:wikidata": "Q3531299", "brand:wikipedia": "en:Tommy Bahama", "check_date": "2023-09-24", "level": "1", "name": "Tommy Bahama", "shop": "clothes"}}, {"type": "Feature", "id": 9480333599, "geometry": {"type": "Point", "coordinates": [-122.204633, 47.616343]}, "properties": {"addr:floor": "2", "addr:housenumber": "2028", "addr:street": "Bellevue Square", "brand": "LoveSac", "brand:wikidata": "Q6690181", "brand:wikipedia": "en:LoveSac", "check_date": "2023-09-24", "level": "1", "name": "LoveSac", "shop": "furniture"}}, {"type": "Feature", "id": 9480333600, "geometry": {"type": "Point", "coordinates": [-122.204636, 47.61663]}, "properties": {"addr:floor": "2", "addr:housenumber": "2022", "addr:street": "Bellevue Square", "check_date": "2023-09-24", "level": "1", "name": "SkinSpirit Skincare Clinic and Spa", "shop": "beauty"}}, {"type": "Feature", "id": 9480333601, "geometry": {"type": "Point", "coordinates": [-122.204637, 47.616724]}, "properties": {"addr:floor": "2", "addr:housenumber": "2020", "addr:street": "Bellevue Square", "check_date": "2023-09-24", "level": "1", "name": "inSpa", "shop": "beauty"}}, {"type": "Feature", "id": 9480333602, "geometry": {"type": "Point", "coordinates": [-122.204637, 47.615868]}, "properties": {"addr:floor": "2", "addr:housenumber": "2038", "addr:street": "Bellevue Square", "brand": "Oil & Vinegar", "brand:wikidata": "Q107987188", "check_date": "2023-09-24", "level": "1", "name": "Oil & Vinegar", "shop": "deli"}}, {"type": "Feature", "id": 9480333603, "geometry": {"type": "Point", "coordinates": [-122.204313, 47.615729]}, "properties": {"addr:floor": "2", "addr:housenumber": "2050", "addr:street": "Bellevue Square", "brand": "J.Jill", "brand:wikidata": "Q64448268", "brand:wikipedia": "en:J.Jill", "check_date": "2023-09-24", "clothes": "women", "level": "1", "name": "J.Jill", "shop": "clothes"}}, {"type": "Feature", "id": 9480333604, "geometry": {"type": "Point", "coordinates": [-122.204173, 47.615733]}, "properties": {"addr:floor": "2", "addr:housenumber": "235", "addr:street": "Bellevue Square", "check_date": "2023-09-24", "level": "1", "name": "Market Optical", "shop": "optician"}}, {"type": "Feature", "id": 9480333605, "geometry": {"type": "Point", "coordinates": [-122.204176, 47.615799]}, "properties": {"addr:floor": "2", "addr:housenumber": "233", "addr:street": "Bellevue Square", "brand": "Peloton", "brand:wikidata": "Q56276186", "brand:wikipedia": "en:Peloton Interactive", "check_date": "2023-09-24", "level": "1", "name": "Peloton", "shop": "sports"}}, {"type": "Feature", "id": 9480333606, "geometry": {"type": "Point", "coordinates": [-122.20418, 47.615879]}, "properties": {"addr:floor": "2", "addr:housenumber": "229", "addr:street": "Bellevue Square", "brand": "Psycho Bunny", "brand:wikidata": "Q25052459", "brand:wikipedia": "en:Psycho Bunny", "check_date": "2023-09-24", "clothes": "men", "level": "1", "name": "Psycho Bunny", "shop": "clothes"}}, {"type": "Feature", "id": 9480333607, "geometry": {"type": "Point", "coordinates": [-122.204184, 47.615967]}, "properties": {"addr:floor": "2", "addr:housenumber": "227", "addr:street": "Bellevue Square", "brand": "Ray-Ban", "brand:wikidata": "Q653941", "check_date": "2023-09-24", "level": "1", "name": "Ray-Ban", "shop": "optician"}}, {"type": "Feature", "id": 9480333608, "geometry": {"type": "Point", "coordinates": [-122.204187, 47.61603]}, "properties": {"addr:floor": "2", "addr:housenumber": "225", "addr:street": "Bellevue Square", "brand": "Tumi", "brand:wikidata": "Q4465402", "brand:wikipedia": "en:Tumi Inc.", "check_date": "2023-09-24", "level": "1", "name": "Tumi", "shop": "bag"}}, {"type": "Feature", "id": 9480333610, "geometry": {"type": "Point", "coordinates": [-122.204463, 47.616025]}, "properties": {"addr:floor": "2", "addr:housenumber": "219", "addr:street": "Bellevue Square", "check_date": "2023-09-24", "level": "1", "name": "Lady M", "shop": "pastry"}}, {"type": "Feature", "id": 9480333611, "geometry": {"type": "Point", "coordinates": [-122.20455, 47.616024]}, "properties": {"addr:floor": "2", "addr:housenumber": "2033", "addr:street": "Bellevue Square", "check_date": "2023-09-24", "level": "1", "name": "Me + Crepe", "shop": "bakery"}}, {"type": "Feature", "id": 9480333612, "geometry": {"type": "Point", "coordinates": [-122.20464, 47.616022]}, "properties": {"addr:floor": "2", "addr:housenumber": "2034", "addr:street": "Bellevue Square", "brand": "The Body Shop", "brand:wikidata": "Q837851", "brand:wikipedia": "en:The Body Shop", "check_date": "2023-09-24", "level": "1", "name": "The Body Shop", "shop": "cosmetics"}}, {"type": "Feature", "id": 9480333613, "geometry": {"type": "Point", "coordinates": [-122.204029, 47.617183]}, "properties": {"amenity": "restaurant", "name": "Nordstrom Marketplace Cafe"}}, {"type": "Feature", "id": 9480333615, "geometry": {"type": "Point", "coordinates": [-122.203517, 47.615825]}, "properties": {"addr:floor": "3", "addr:housenumber": "340", "addr:street": "Bellevue Square", "check_date": "2023-09-24", "level": "2", "name": "Sharkey\u2019s Cuts For Kids", "shop": "hairdresser"}}, {"type": "Feature", "id": 9480333616, "geometry": {"type": "Point", "coordinates": [-122.202983, 47.615466]}, "properties": {"addr:floor": "2", "addr:housenumber": "272", "addr:street": "Bellevue Square", "check_date": "2023-09-24", "level": "1", "name": "Proto101", "shop": "clothes"}}, {"type": "Feature", "id": 10997636231, "geometry": {"type": "Point", "coordinates": [-122.204606, 47.616768]}, "properties": {}}, {"type": "Feature", "id": 10997636232, "geometry": {"type": "Point", "coordinates": [-122.204495, 47.616704]}, "properties": {}}, {"type": "Feature", "id": 10997636233, "geometry": {"type": "Point", "coordinates": [-122.203993, 47.616701]}, "properties": {}}, {"type": "Feature", "id": 11180545738, "geometry": {"type": "Point", "coordinates": [-122.204772, 47.616549]}, "properties": {"addr:floor": "1", "addr:housenumber": "1018", "addr:street": "Bellevue Square", "brand": "Polestar", "brand:wikidata": "Q4047174", "check_date": "2023-09-24", "level": "0", "name": "Polestar", "shop": "car"}}, {"type": "Feature", "id": 11213162188, "geometry": {"type": "Point", "coordinates": [-122.202341, 47.615494]}, "properties": {"brand": "Finish Line", "brand:wikidata": "Q5450341", "check_date": "2023-09-24", "level": "-1", "name": "Finish Line", "shop": "sports", "wheelchair": "yes"}}, {"type": "Feature", "id": 11217037185, "geometry": {"type": "Point", "coordinates": [-122.204909, 47.615914]}, "properties": {"addr:floor": "1", "addr:housenumber": "1087", "addr:street": "Bellevue Square", "amenity": "atm", "brand": "Bank of America", "brand:wikidata": "Q487907", "check_date": "2023-09-24", "level": "0", "operator": "Bank of America", "operator:wikidata": "Q487907"}}, {"type": "Feature", "id": 11217037186, "geometry": {"type": "Point", "coordinates": [-122.204289, 47.615656]}, "properties": {"addr:floor": "1", "addr:housenumber": "149", "addr:street": "Bellevue Square", "brand": "UpWest", "brand:wikidata": "Q110972906", "check_date": "2023-09-24", "level": "0", "name": "UpWest", "shop": "clothes"}}, {"type": "Feature", "id": 11217037187, "geometry": {"type": "Point", "coordinates": [-122.204765, 47.616264]}, "properties": {"addr:floor": "1", "addr:housenumber": "1020", "addr:street": "Bellevue Square", "amenity": "ice_cream", "check_date": "2023-09-24", "cuisine": "shaved_ice", "level": "0", "name": "IceMonster"}}, {"type": "Feature", "id": 11217037188, "geometry": {"type": "Point", "coordinates": [-122.203891, 47.616259]}, "properties": {"addr:floor": "1", "addr:housenumber": "112", "addr:street": "Bellevue Square", "brand": "Chanel", "brand:wikidata": "Q218115", "check_date": "2023-09-24", "level": "0", "name": "Chanel", "shop": "cosmetics"}}, {"type": "Feature", "id": 11217037189, "geometry": {"type": "Point", "coordinates": [-122.20389, 47.616205]}, "properties": {"addr:floor": "1", "addr:housenumber": "116", "addr:street": "Bellevue Square", "brand": "Nike", "brand:wikidata": "Q483915", "check_date": "2023-09-24", "level": "0", "name": "Nike", "shop": "clothes"}}, {"type": "Feature", "id": 11217037190, "geometry": {"type": "Point", "coordinates": [-122.203876, 47.615665]}, "properties": {"addr:floor": "1", "addr:housenumber": "126", "addr:street": "Bellevue Square", "amenity": "cafe", "check_date": "2023-09-24", "cuisine": "coffee_shop", "level": "0", "name": "Caffe Vita"}}, {"type": "Feature", "id": 11217037191, "geometry": {"type": "Point", "coordinates": [-122.203015, 47.615533]}, "properties": {"addr:floor": "1", "addr:housenumber": "188", "addr:street": "Bellevue Square", "amenity": "cafe", "check_date": "2023-09-24", "cuisine": "matcha", "level": "0", "name": "Chamei Matcha"}}, {"type": "Feature", "id": 11217037192, "geometry": {"type": "Point", "coordinates": [-122.203637, 47.615828]}, "properties": {"addr:floor": "3", "addr:housenumber": "320", "addr:street": "Bellevue Square", "check_date": "2023-09-24", "level": "2", "name": "Midnight Cookie Company", "shop": "pastry"}}, {"type": "Feature", "id": 11217037193, "geometry": {"type": "Point", "coordinates": [-122.20372, 47.614392]}, "properties": {"addr:floor": "1", "addr:housenumber": "1100", "addr:street": "Bellevue Square", "brand": "Foot Locker", "brand:wikidata": "Q63335", "check_date": "2023-09-24", "level": "0", "name": "Kids Foot Locker", "shop": "shoes"}}, {"type": "Feature", "id": 11217037194, "geometry": {"type": "Point", "coordinates": [-122.203716, 47.614474]}, "properties": {"addr:floor": "1", "addr:housenumber": "1100", "addr:street": "Bellevue Square", "brand": "Foot Locker", "brand:wikidata": "Q63335", "check_date": "2023-09-24", "level": "0", "name": "Foot Locker", "shop": "shoes"}}, {"type": "Feature", "id": 11217037195, "geometry": {"type": "Point", "coordinates": [-122.204275, 47.615091]}, "properties": {"addr:floor": "1", "addr:housenumber": "167", "addr:street": "Bellevue Square", "beauty": "eyebrow", "check_date": "2023-09-24", "level": "0", "name": "Brow Arc", "shop": "beauty", "website": "https://browarc.com"}}, {"type": "Feature", "id": 11217037196, "geometry": {"type": "Point", "coordinates": [-122.203893, 47.615295]}, "properties": {"addr:floor": "1", "addr:housenumber": "163", "addr:street": "Bellevue Square", "brand": "Levi's", "brand:wikidata": "Q127962", "check_date": "2023-09-24", "clothes": "denim;men;women", "level": "0", "name": "Levi's", "shop": "clothes"}}, {"type": "Feature", "id": 11217037197, "geometry": {"type": "Point", "coordinates": [-122.20513, 47.61544]}, "properties": {"addr:floor": "2", "addr:housenumber": "2070", "addr:street": "Bellevue Square", "brand": "Express", "brand:wikidata": "Q1384784", "check_date": "2023-09-24", "level": "1", "name": "Express", "shop": "clothes"}}, {"type": "Feature", "id": 11217037198, "geometry": {"type": "Point", "coordinates": [-122.204789, 47.615439]}, "properties": {"addr:floor": "2", "addr:housenumber": "2062", "addr:street": "Bellevue Square", "brand": "Talbots", "brand:wikidata": "Q7679064", "check_date": "2023-09-24", "level": "1", "name": "Talbots", "shop": "clothes"}}, {"type": "Feature", "id": 11217037199, "geometry": {"type": "Point", "coordinates": [-122.204971, 47.61544]}, "properties": {"addr:floor": "2", "addr:housenumber": "2070", "addr:street": "Bellevue Square", "brand": "Express", "brand:wikidata": "Q1384784", "check_date": "2023-09-24", "level": "1", "name": "Express Men", "shop": "clothes"}}, {"type": "Feature", "id": 11217037200, "geometry": {"type": "Point", "coordinates": [-122.204585, 47.615439]}, "properties": {"addr:floor": "2", "addr:housenumber": "2058", "addr:street": "Bellevue Square", "brand": "J.Crew", "brand:wikidata": "Q5370765", "check_date": "2023-09-24", "clothes": "men;women;children", "level": "1", "name": "J.Crew", "shop": "clothes"}}, {"type": "Feature", "id": 11217037201, "geometry": {"type": "Point", "coordinates": [-122.20412, 47.615487]}, "properties": {"addr:floor": "2", "addr:housenumber": "241", "addr:street": "Bellevue Square", "brand": "Brighton Collectibles", "brand:wikidata": "Q4967623", "check_date": "2023-09-24", "level": "1", "name": "Brighton Collectibles", "shop": "fashion_accessories"}}, {"type": "Feature", "id": 11217037202, "geometry": {"type": "Point", "coordinates": [-122.203961, 47.615444]}, "properties": {"addr:floor": "2", "addr:housenumber": "243", "addr:street": "Bellevue Square", "brand": "Aveda", "brand:wikidata": "Q4827965", "check_date": "2023-09-24", "level": "1", "name": "Aveda", "shop": "cosmetics"}}, {"type": "Feature", "id": 11217037203, "geometry": {"type": "Point", "coordinates": [-122.203961, 47.61538]}, "properties": {"addr:floor": "2", "addr:housenumber": "245", "addr:street": "Bellevue Square", "brand": "Timberland", "brand:wikidata": "Q1539185", "check_date": "2023-09-24", "level": "1", "name": "Timberland", "shop": "clothes"}}, {"type": "Feature", "id": 11217037204, "geometry": {"type": "Point", "coordinates": [-122.203928, 47.61515]}, "properties": {"addr:floor": "2", "addr:housenumber": "249", "addr:street": "Bellevue Square", "check_date": "2023-09-24", "level": "1", "name": "Oak + Fort", "shop": "clothes"}}, {"type": "Feature", "id": 11217037205, "geometry": {"type": "Point", "coordinates": [-122.204268, 47.615158]}, "properties": {"addr:floor": "2", "addr:housenumber": "253", "addr:street": "Bellevue Square", "beauty": "nails", "check_date": "2023-09-24", "level": "1", "name": "Organic Nail Bar", "shop": "beauty"}}, {"type": "Feature", "id": 11217037206, "geometry": {"type": "Point", "coordinates": [-122.203611, 47.614821]}, "properties": {"addr:floor": "2", "addr:housenumber": "248", "addr:street": "Bellevue Square", "brand": "Urban Outfitters", "brand:wikidata": "Q3552193", "check_date": "2023-09-24", "level": "1", "name": "Urban Outfitters", "shop": "clothes"}}, {"type": "Feature", "id": 11217037207, "geometry": {"type": "Point", "coordinates": [-122.203618, 47.615262]}, "properties": {"addr:floor": "2", "addr:housenumber": "236", "addr:street": "Bellevue Square", "addr:unit": "A", "check_date": "2023-09-24", "cuisine": "cupcake", "level": "1", "name": "Trophy Cupcakes", "shop": "bakery"}}, {"type": "Feature", "id": 11217037208, "geometry": {"type": "Point", "coordinates": [-122.203543, 47.615466]}, "properties": {"addr:floor": "2", "addr:housenumber": "230", "addr:street": "Bellevue Square", "check_date": "2023-09-24", "level": "1", "name": "apm Monaco", "shop": "jewelry"}}, {"type": "Feature", "id": 11217037209, "geometry": {"type": "Point", "coordinates": [-122.203355, 47.61576]}, "properties": {"addr:floor": "2", "addr:housenumber": "258", "addr:street": "Bellevue Square", "addr:unit": "A", "brand": "Lovisa", "brand:wikidata": "Q106298409", "check_date": "2023-09-24", "level": "1", "name": "Lovisa", "shop": "jewelry"}}, {"type": "Feature", "id": 11217037210, "geometry": {"type": "Point", "coordinates": [-122.204633, 47.616258]}, "properties": {"addr:floor": "2", "addr:housenumber": "2030", "addr:street": "Bellevue Square", "brand": "Johnny Was", "brand:wikidata": "Q113497579", "check_date": "2023-09-24", "clothes": "women", "level": "1", "name": "Johnny Was", "shop": "clothes"}}, {"type": "Feature", "id": 11217037211, "geometry": {"type": "Point", "coordinates": [-122.204633, 47.615671]}, "properties": {"addr:floor": "2", "addr:housenumber": "2042", "addr:street": "Bellevue Square", "check_date": "2023-09-24", "level": "1", "name": "Domino", "shop": "shoes"}}, {"type": "Feature", "id": 11217037212, "geometry": {"type": "Point", "coordinates": [-122.204914, 47.615963]}, "properties": {"addr:floor": "1", "addr:housenumber": "1085", "addr:street": "Bellevue Square", "amenity": "fast_food", "brand": "Wetzel's Pretzels", "brand:wikidata": "Q7990205", "check_date": "2023-09-24", "cuisine": "pretzel", "level": "0", "name": "Wetzel's Pretzels", "takeaway": "yes"}}, {"type": "Feature", "id": 11414312333, "geometry": {"type": "Point", "coordinates": [-122.203347, 47.61564]}, "properties": {"addr:floor": "1", "addr:housenumber": "170", "addr:street": "Bellevue Square", "brand": "Marine Layer", "brand:wikidata": "Q113227682", "check_date": "2023-12-10", "level": "0", "name": "Marine Layer", "shop": "clothes"}}, {"type": "Feature", "id": 11414312334, "geometry": {"type": "Point", "coordinates": [-122.203432, 47.615753]}, "properties": {"addr:floor": "2", "addr:housenumber": "258", "addr:street": "Bellevue Square", "check_date": "2023-12-10", "level": "1", "name": "Pop Mart", "shop": "collector"}}]}