{"type": "FeatureCollection", "features": [{"type": "Feature", "id": 342635489, "geometry": {"type": "Point", "coordinates": [-122.200769, 47.620393]}, "properties": {"addr:housenumber": "1100", "brand": "BevMo!", "brand:wikidata": "Q4899308", "brand:wikipedia": "en:BevMo!", "name": "BevMo!", "shop": "alcohol", "source": "local_knowledge"}}, {"type": "Feature", "id": 366733362, "geometry": {"type": "Point", "coordinates": [-122.199527, 47.620171]}, "properties": {}}, {"type": "Feature", "id": 366733363, "geometry": {"type": "Point", "coordinates": [-122.199522, 47.620512]}, "properties": {}}, {"type": "Feature", "id": 366733364, "geometry": {"type": "Point", "coordinates": [-122.200206, 47.620514]}, "properties": {}}, {"type": "Feature", "id": 366733365, "geometry": {"type": "Point", "coordinates": [-122.200208, 47.620422]}, "properties": {}}, {"type": "Feature", "id": 366733366, "geometry": {"type": "Point", "coordinates": [-122.200388, 47.620406]}, "properties": {}}, {"type": "Feature", "id": 366733367, "geometry": {"type": "Point", "coordinates": [-122.200428, 47.620434]}, "properties": {}}, {"type": "Feature", "id": 366733368, "geometry": {"type": "Point", "coordinates": [-122.200776, 47.620435]}, "properties": {}}, {"type": "Feature", "id": 366733369, "geometry": {"type": "Point", "coordinates": [-122.200848, 47.620388]}, "properties": {}}, {"type": "Feature", "id": 366733370, "geometry": {"type": "Point", "coordinates": [-122.201129, 47.620389]}, "properties": {}}, {"type": "Feature", "id": 366733371, "geometry": {"type": "Point", "coordinates": [-122.201202, 47.62044]}, "properties": {}}, {"type": "Feature", "id": 366733373, "geometry": {"type": "Point", "coordinates": [-122.201518, 47.620271]}, "properties": {}}, {"type": "Feature", "id": 366733374, "geometry": {"type": "Point", "coordinates": [-122.200911, 47.620262]}, "properties": {}}, {"type": "Feature", "id": 366733375, "geometry": {"type": "Point", "coordinates": [-122.200909, 47.620167]}, "properties": {}}, {"type": "Feature", "id": 1987522454, "geometry": {"type": "Point", "coordinates": [-122.199557, 47.620182]}, "properties": {"addr:housenumber": "1101", "addr:postcode": "98004", "addr:street": "106th Avenue Northeast", "addr:unit": "15", "amenity": "school", "name": "CoderSchool", "training": "computer"}}, {"type": "Feature", "id": 1987522456, "geometry": {"type": "Point", "coordinates": [-122.199561, 47.620267]}, "properties": {"addr:housenumber": "1101", "addr:postcode": "98004", "addr:street": "106th Avenue Northeast", "addr:unit": "14", "amenity": "restaurant", "cuisine": "thai", "diet:vegetarian": "yes", "indoor_seating": "yes", "name": "Rice'n'Spice", "opening_hours": "Mo-Fr 11:00-15:30,16:00-21:00; Sa,Su 12:00-15:30,16:00-21:00", "outdoor_seating": "yes", "source": "http://ricenspicethai.com/locations.html", "website": "https://ricenspicethai.com/", "wheelchair": "yes"}}, {"type": "Feature", "id": 1987547327, "geometry": {"type": "Point", "coordinates": [-122.199557, 47.620476]}, "properties": {"addr:city": "Bellevue", "addr:housenumber": "1101", "addr:postcode": "98004", "addr:street": "106th Avenue Northeast", "amenity": "fast_food", "brand": "Panera Bread", "brand:wikidata": "Q7130852", "brand:wikipedia": "en:Panera Bread", "check_date:opening_hours": "2023-05-20", "cuisine": "sandwich;bakery", "indoor_seating": "yes", "internet_access": "wlan", "name": "Panera Bread", "opening_hours:signed": "no", "outdoor_seating": "yes", "short_name": "Panera", "source": "http://www.panerabread.com/", "takeaway": "yes", "website": "https://www.panerabread.com/find.php"}}, {"type": "Feature", "id": 1987547334, "geometry": {"type": "Point", "coordinates": [-122.199557, 47.620362]}, "properties": {"addr:city": "Bellevue", "addr:housenumber": "1101", "addr:postcode": "98004", "addr:street": "106th Avenue Northeast", "addr:unit": "10", "name": "Vision Plus Bellevue", "opening_hours": "Mo-Fr 08:00-12:00,13:00-16:00; Sa,Su off", "shop": "optician"}}, {"type": "Feature", "id": 1987569543, "geometry": {"type": "Point", "coordinates": [-122.201437, 47.620416]}, "properties": {"addr:housenumber": "1100", "addr:suite": "1", "indoor": "yes", "leisure": "playground", "name": "Adventure Kids Playcare", "source": "http://web.adventurekidsplaycare.com/bellevue/hours.html", "survey:date": "2021-09-19", "website": "https://adventurekidsplaycare.com/"}}, {"type": "Feature", "id": 1987569546, "geometry": {"type": "Point", "coordinates": [-122.200142, 47.620474]}, "properties": {"addr:housenumber": "1100", "addr:postcode": "98004", "addr:street": "Bellevue Way NE", "addr:suite": "7", "club": "automobile", "name": "AAA Cruises and Travel", "opening_hours": "Mo-Fr 09:00-18:00; Sa,Su off", "shop": "outdoor", "wheelchair": "yes"}}, {"type": "Feature", "id": 3139385733, "geometry": {"type": "Point", "coordinates": [-122.199851, 47.620483]}, "properties": {"addr:housenumber": "1100", "addr:suite": "8", "name": "Pet Pros", "shop": "pet", "survey:date": "2021-09-19"}}, {"type": "Feature", "id": 7956340114, "geometry": {"type": "Point", "coordinates": [-122.201468, 47.62044]}, "properties": {}}, {"type": "Feature", "id": 7956340115, "geometry": {"type": "Point", "coordinates": [-122.201506, 47.620264]}, "properties": {}}, {"type": "Feature", "id": 7956340116, "geometry": {"type": "Point", "coordinates": [-122.200231, 47.620405]}, "properties": {}}, {"type": "Feature", "id": 7956340131, "geometry": {"type": "Point", "coordinates": [-122.201516, 47.620427]}, "properties": {}}, {"type": "Feature", "id": 7956340132, "geometry": {"type": "Point", "coordinates": [-122.201468, 47.620427]}, "properties": {}}, {"type": "Feature", "id": 7956340142, "geometry": {"type": "Point", "coordinates": [-122.199619, 47.620164]}, "properties": {}}, {"type": "Feature", "id": 7956340143, "geometry": {"type": "Point", "coordinates": [-122.199618, 47.620171]}, "properties": {}}, {"type": "Feature", "id": 7956340163, "geometry": {"type": "Point", "coordinates": [-122.200221, 47.620413]}, "properties": {"entrance": "yes"}}, {"type": "Feature", "id": 9106438617, "geometry": {"type": "Point", "coordinates": [-122.199997, 47.620477]}, "properties": {"addr:housenumber": "1100", "addr:street": "Bellevue Way Northeast", "addr:suite": "8A", "amenity": "post_office", "brand": "The UPS Store", "brand:wikidata": "Q7771029", "brand:wikipedia": "en:The UPS Store", "name": "The UPS Store", "opening_hours": "Mo-Fr 08:00-18:30; Sa 09:30-15:00; Su off", "shop": "copyshop", "short_name": "UPS", "survey:date": "2021-09-19", "wheelchair": "yes"}}, {"type": "Feature", "id": 9106438717, "geometry": {"type": "Point", "coordinates": [-122.200031, 47.620505]}, "properties": {"amenity": "post_box", "brand": "USPS", "brand:wikidata": "Q668687", "brand:wikipedia": "en:United States Postal Service", "collection_times": "Mo-Fr 14:30, Sa 12:00", "name": "USPS", "operator": "United States Postal Service", "operator:short": "USPS", "operator:type": "public", "operator:wikidata": "Q668687", "operator:wikipedia": "en:United States Postal Service", "ref": "9800400001", "short_name": "USPS", "survey:date": "2021-09-19"}}, {"type": "Feature", "id": 9106438718, "geometry": {"type": "Point", "coordinates": [-122.20101, 47.620376]}, "properties": {"amenity": "bench", "backrest": "yes", "survey:date": "2021-09-19"}}, {"type": "Feature", "id": 9106438719, "geometry": {"type": "Point", "coordinates": [-122.200971, 47.620381]}, "properties": {"amenity": "waste_basket", "survey:date": "2021-09-19"}}]}