{"type": "FeatureCollection", "features": [{"type": "Feature", "id": 8689528362, "geometry": {"type": "Point", "coordinates": [-122.647855, 48.288812]}, "properties": {}}, {"type": "Feature", "id": 8689528364, "geometry": {"type": "Point", "coordinates": [-122.647775, 48.288641]}, "properties": {}}, {"type": "Feature", "id": 8689528365, "geometry": {"type": "Point", "coordinates": [-122.647516, 48.288715]}, "properties": {}}, {"type": "Feature", "id": 8689528366, "geometry": {"type": "Point", "coordinates": [-122.647628, 48.288965]}, "properties": {}}, {"type": "Feature", "id": 8689528367, "geometry": {"type": "Point", "coordinates": [-122.647978, 48.288891]}, "properties": {}}, {"type": "Feature", "id": 8689528368, "geometry": {"type": "Point", "coordinates": [-122.647935, 48.288793]}, "properties": {}}, {"type": "Feature", "id": 8689528372, "geometry": {"type": "Point", "coordinates": [-122.647609, 48.288922]}, "properties": {}}, {"type": "Feature", "id": 10133980131, "geometry": {"type": "Point", "coordinates": [-122.647745, 48.288859]}, "properties": {"addr:city": "Oak Harbor", "addr:housenumber": "830", "addr:postcode": "98277", "addr:state": "WA", "addr:street": "Southeast Pioneer Way", "addr:unit": "106", "amenity": "restaurant", "checked_exists:date": "2022-10-27", "cuisine": "mexican", "name": "Noe Jose Cafe"}}, {"type": "Feature", "id": 10135766838, "geometry": {"type": "Point", "coordinates": [-122.647582, 48.288722]}, "properties": {"name": "Dina\u2019s Great Finds", "shop": "antiques"}}, {"type": "Feature", "id": 10135766846, "geometry": {"type": "Point", "coordinates": [-122.647726, 48.288679]}, "properties": {"addr:city": "Oak Harbor", "addr:housenumber": "830`", "addr:postcode": "98277", "addr:state": "WA", "addr:street": "SE Pioneer Way", "name": "Garry Oak Gallery", "tourism": "gallery", "website": "https://www.garryoakgallery.com/"}}, {"type": "Feature", "id": 10135766850, "geometry": {"type": "Point", "coordinates": [-122.647646, 48.288678]}, "properties": {"entrance": "main"}}]}