{"type": "FeatureCollection", "features": [{"type": "Feature", "id": 6812974930, "geometry": {"type": "Point", "coordinates": [-119.341363, 46.258323]}, "properties": {}}, {"type": "Feature", "id": 6812974931, "geometry": {"type": "Point", "coordinates": [-119.340148, 46.258051]}, "properties": {}}, {"type": "Feature", "id": 6812974932, "geometry": {"type": "Point", "coordinates": [-119.340214, 46.25791]}, "properties": {}}, {"type": "Feature", "id": 6812974933, "geometry": {"type": "Point", "coordinates": [-119.341429, 46.258183]}, "properties": {}}, {"type": "Feature", "id": 6820595975, "geometry": {"type": "Point", "coordinates": [-119.341142, 46.258189]}, "properties": {"brand": "Farmers Insurance", "brand:wikidata": "Q1396863", "brand:wikipedia": "en:Farmers Insurance Group", "level": "0", "name": "Farmers Insurance", "office": "insurance"}}, {"type": "Feature", "id": 6820595976, "geometry": {"type": "Point", "coordinates": [-119.340456, 46.25806]}, "properties": {"name": "Cougar Digital", "office": "advertising_agency"}}, {"type": "Feature", "id": 6820595977, "geometry": {"type": "Point", "coordinates": [-119.340634, 46.258084]}, "properties": {"amenity": "clinic", "healthcare": "clinic", "healthcare:speciality": "bariatric", "level": "0", "name": "Greater Columbia Bariatric Surgeons"}}, {"type": "Feature", "id": 6820595978, "geometry": {"type": "Point", "coordinates": [-119.340278, 46.258016]}, "properties": {"addr:city": "West Richland", "addr:housenumber": "4001", "addr:postcode": "99353", "addr:state": "WA", "addr:street": "Kennedy Road", "addr:unit": "1", "amenity": "dentist", "contact:phone": "+1-509-980-0155", "healthcare": "dentist", "healthcare:speciality": "dentist", "level": "0", "name": "Crown Dental", "website": "https://crownfamilydental.com"}}, {"type": "Feature", "id": 6820595979, "geometry": {"type": "Point", "coordinates": [-119.340969, 46.258157]}, "properties": {"amenity": "kindergarten", "level": "0", "name": "Kid Space Preschool Early Learning Academy"}}, {"type": "Feature", "id": 6820595981, "geometry": {"type": "Point", "coordinates": [-119.340535, 46.258072]}, "properties": {"name": "Crimson Vine Marketing", "office": "advertising_agency"}}, {"type": "Feature", "id": 6820595982, "geometry": {"type": "Point", "coordinates": [-119.341216, 46.258205]}, "properties": {"club": "sport", "name": "embody yoga", "sport": "yoga"}}, {"type": "Feature", "id": 6820595983, "geometry": {"type": "Point", "coordinates": [-119.340857, 46.258128]}, "properties": {"amenity": "fast_food", "brand": "Domino's", "brand:wikidata": "Q839466", "brand:wikipedia": "en:Domino's Pizza", "cuisine": "pizza", "level": "0", "name": "Domino's", "short_name": "Domino's", "takeaway": "yes"}}]}