{"type": "FeatureCollection", "features": [{"type": "Feature", "id": 6780333264, "geometry": {"type": "Point", "coordinates": [-119.172869, 46.184169]}, "properties": {}}, {"type": "Feature", "id": 6780333265, "geometry": {"type": "Point", "coordinates": [-119.171783, 46.184125]}, "properties": {}}, {"type": "Feature", "id": 6780333266, "geometry": {"type": "Point", "coordinates": [-119.171799, 46.18394]}, "properties": {}}, {"type": "Feature", "id": 6780333267, "geometry": {"type": "Point", "coordinates": [-119.172885, 46.183983]}, "properties": {}}, {"type": "Feature", "id": 10882669313, "geometry": {"type": "Point", "coordinates": [-119.171909, 46.184099]}, "properties": {"addr:unit": "101", "name": "Mail n Stuff", "shop": "yes"}}, {"type": "Feature", "id": 10882669314, "geometry": {"type": "Point", "coordinates": [-119.172004, 46.184113]}, "properties": {"addr:unit": "102", "beauty": "nails", "name": "Lasting Nails", "shop": "beauty"}}, {"type": "Feature", "id": 10882669315, "geometry": {"type": "Point", "coordinates": [-119.172155, 46.184123]}, "properties": {"addr:unit": "103", "amenity": "restaurant", "cuisine": "mexican", "name": "Fuego", "opening_hours": "Mo-Su 11:00-20:30; Fr,Sa 11:00-21:30", "website": "https://www.fuegomexicanrestaurant.com/"}}, {"type": "Feature", "id": 10882669316, "geometry": {"type": "Point", "coordinates": [-119.172317, 46.184128]}, "properties": {"addr:unit": "105", "amenity": "dentist", "healthcare": "dentist", "healthcare:speciality": "paediatrics", "name": "Smile Surfers"}}, {"type": "Feature", "id": 10882669317, "geometry": {"type": "Point", "coordinates": [-119.172528, 46.184137]}, "properties": {"addr:unit": "106", "brand": "Great Clips", "brand:wikidata": "Q5598967", "name": "Great Clips", "shop": "hairdresser"}}, {"type": "Feature", "id": 10882669318, "geometry": {"type": "Point", "coordinates": [-119.17264, 46.184144]}, "properties": {"addr:unit": "107", "name": "Caring Hands Groomng", "phone": "+1 509-572-2229", "shop": "pet_grooming"}}, {"type": "Feature", "id": 10882669319, "geometry": {"type": "Point", "coordinates": [-119.172722, 46.184151]}, "properties": {"addr:unit": "108", "name": "Green Cleaners", "self_service": "no", "shop": "laundry"}}, {"type": "Feature", "id": 10882669320, "geometry": {"type": "Point", "coordinates": [-119.172819, 46.184156]}, "properties": {"addr:unit": "109", "amenity": "restaurant", "name": "Dagupan Grill", "website": "https://dagupangrill.com/"}}]}