{"type": "FeatureCollection", "features": [{"type": "Feature", "id": 10696139808, "geometry": {"type": "Point", "coordinates": [-123.101342, 48.079539]}, "properties": {}}, {"type": "Feature", "id": 10696139809, "geometry": {"type": "Point", "coordinates": [-123.100779, 48.079537]}, "properties": {}}, {"type": "Feature", "id": 10696139810, "geometry": {"type": "Point", "coordinates": [-123.100814, 48.07925]}, "properties": {}}, {"type": "Feature", "id": 10696139811, "geometry": {"type": "Point", "coordinates": [-123.101342, 48.079249]}, "properties": {}}, {"type": "Feature", "id": 10748561882, "geometry": {"type": "Point", "coordinates": [-123.101341, 48.07934]}, "properties": {}}, {"type": "Feature", "id": 10748561894, "geometry": {"type": "Point", "coordinates": [-123.100813, 48.079403]}, "properties": {}}, {"type": "Feature", "id": 10748561895, "geometry": {"type": "Point", "coordinates": [-123.100777, 48.079405]}, "properties": {}}, {"type": "Feature", "id": 10748561896, "geometry": {"type": "Point", "coordinates": [-123.101135, 48.079358]}, "properties": {"addr:city": "Sequim", "addr:housenumber": "145", "addr:postcode": "98382", "addr:state": "WA", "addr:street": "East Washington Street", "addr:unit": "D", "amenity": "restaurant", "name": "Wild Goddess Brews -n- Bites", "note": "LGBTQ+ Friendly \nLGBTQ+ Owned\nIdentifies as women-owned", "opening_hours": "Tu-Th 11:00-20:00, Fr-Sa 12:00-21:00", "phone": "+1 (360)-504-3700", "website": "https://wildgoddessbrewsnbites.com/menu"}}, {"type": "Feature", "id": 10748561897, "geometry": {"type": "Point", "coordinates": [-123.100874, 48.079446]}, "properties": {"addr:city": "Sequim", "addr:housenumber": "145", "addr:postcode": "98382", "addr:state": "WA", "addr:street": "East Washington Street", "amenity": "restaurant", "cuisine": "chinese", "delivery": "no", "name": "Fortune Star Chinese Restaurant", "opening_hours": "Mo 11:00-21:30, We-Fr 11:00-21:30, Sa 12:00-21:30, Su 11:30-21:30", "phone": "+1 (360)-681-6888", "takeaway": "yes"}}]}