{"type": "FeatureCollection", "features": [{"type": "Feature", "id": 1577100394, "geometry": {"type": "Point", "coordinates": [-122.344023, 47.739707]}, "properties": {}}, {"type": "Feature", "id": 1577100395, "geometry": {"type": "Point", "coordinates": [-122.343773, 47.739693]}, "properties": {}}, {"type": "Feature", "id": 1577100396, "geometry": {"type": "Point", "coordinates": [-122.344027, 47.740455]}, "properties": {}}, {"type": "Feature", "id": 1577100424, "geometry": {"type": "Point", "coordinates": [-122.344127, 47.739707]}, "properties": {}}, {"type": "Feature", "id": 1577100437, "geometry": {"type": "Point", "coordinates": [-122.344122, 47.739026]}, "properties": {}}, {"type": "Feature", "id": 1577100445, "geometry": {"type": "Point", "coordinates": [-122.343426, 47.739694]}, "properties": {}}, {"type": "Feature", "id": 1577100447, "geometry": {"type": "Point", "coordinates": [-122.343431, 47.740457]}, "properties": {}}, {"type": "Feature", "id": 1577100467, "geometry": {"type": "Point", "coordinates": [-122.343769, 47.739027]}, "properties": {}}, {"type": "Feature", "id": 4094911394, "geometry": {"type": "Point", "coordinates": [-122.343932, 47.739988]}, "properties": {"addr:city": "Shoreline", "addr:postcode": "98133", "addr:state": "WA", "addr:street": "Aurora Avenue North", "brand": "JOANN Fabrics and Crafts", "brand:wikidata": "Q6203968", "brand:wikipedia": "en:Jo-Ann Stores", "check_date": "2023-09-29", "name": "JOANN Fabrics and Crafts", "shop": "craft", "short_name": "JOANN"}}, {"type": "Feature", "id": 4483046845, "geometry": {"type": "Point", "coordinates": [-122.344034, 47.739108]}, "properties": {"addr:city": "Shoreline", "addr:housenumber": "15202", "addr:postcode": "98133", "addr:state": "WA", "addr:street": "Aurora Avenue North", "addr:unit": "A", "name": "Arcane Comics and More", "phone": "+1-206-781-4875", "shop": "books", "website": "https://www.arcanecomicbooks.com/"}}, {"type": "Feature", "id": 5610875727, "geometry": {"type": "Point", "coordinates": [-122.343927, 47.740387]}, "properties": {"addr:housenumber": "15242", "addr:street": "Aurora Avenue North", "brand": "Sherwin-Williams", "brand:wikidata": "Q48881", "brand:wikipedia": "en:Sherwin-Williams", "check_date": "2023-09-29", "name": "Sherwin-Williams", "shop": "paint"}}, {"type": "Feature", "id": 5610875728, "geometry": {"type": "Point", "coordinates": [-122.343935, 47.740326]}, "properties": {"addr:city": "Shoreline", "addr:housenumber": "15240", "addr:postcode": "98133", "addr:state": "WA", "addr:street": "Aurora Avenue North", "clothes": "workwear", "name": "Whistle Workwear", "shop": "clothes", "website": "https://www.americanworkwear.com/"}}, {"type": "Feature", "id": 6367997524, "geometry": {"type": "Point", "coordinates": [-122.343941, 47.74018]}, "properties": {"addr:city": "Shoreline", "addr:housenumber": "15238", "addr:postcode": "98133", "addr:state": "WA", "addr:street": "Aurora Avenue North", "amenity": "restaurant", "check_date": "2023-09-29", "cuisine": "mediterranean", "name": "Mediterranean Oasis", "outdoor_seating": "no"}}, {"type": "Feature", "id": 6383905141, "geometry": {"type": "Point", "coordinates": [-122.344057, 47.739635]}, "properties": {"addr:city": "Shoreline", "addr:housenumber": "15214", "addr:postcode": "98133", "addr:state": "WA", "addr:street": "Aurora Avenue North", "amenity": "clinic", "check_date": "2023-09-29", "healthcare": "clinic", "healthcare:speciality": "primary_care", "name": "One Medical", "opening_hours": "Mo-Fr 08:30-17:00"}}, {"type": "Feature", "id": 6383905142, "geometry": {"type": "Point", "coordinates": [-122.344057, 47.739501]}, "properties": {"addr:city": "Shoreline", "addr:housenumber": "15210", "addr:postcode": "98133", "addr:state": "WA", "addr:street": "Aurora Avenue North", "alt_name": "Pho T\u00e1i Vietnamese Noodle & Teriyaki", "amenity": "restaurant", "check_date": "2023-09-29", "cuisine": "vietnamese", "name": "Le\u2019s Pho T\u00e1i", "phone": "+1 206-364-5444"}}, {"type": "Feature", "id": 6383905143, "geometry": {"type": "Point", "coordinates": [-122.344054, 47.739422]}, "properties": {"addr:city": "Shoreline", "addr:housenumber": "15208", "addr:postcode": "98133", "addr:state": "WA", "addr:street": "Aurora Avenue North", "amenity": "clinic", "check_date": "2023-09-29", "healthcare": "clinic", "name": "Dr. Kim's Clinic", "phone": "+1 206-362-3361"}}, {"type": "Feature", "id": 6383905144, "geometry": {"type": "Point", "coordinates": [-122.344053, 47.739228]}, "properties": {"addr:city": "Shoreline", "addr:housenumber": "15202", "addr:postcode": "98133", "addr:state": "WA", "addr:street": "Aurora Avenue North", "addr:unit": "B", "leisure": "sports_centre", "name": "Martial Arts Center", "sport": "martial_arts", "website": "https://www.themacenter.com/"}}, {"type": "Feature", "id": 7455790882, "geometry": {"type": "Point", "coordinates": [-122.344122, 47.739302]}, "properties": {}}, {"type": "Feature", "id": 7455790883, "geometry": {"type": "Point", "coordinates": [-122.343769, 47.739303]}, "properties": {}}, {"type": "Feature", "id": 7455790884, "geometry": {"type": "Point", "coordinates": [-122.34377, 47.739368]}, "properties": {}}, {"type": "Feature", "id": 7455795985, "geometry": {"type": "Point", "coordinates": [-122.344123, 47.739367]}, "properties": {}}, {"type": "Feature", "id": 10294605222, "geometry": {"type": "Point", "coordinates": [-122.344021, 47.739742]}, "properties": {"amenity": "bicycle_parking", "bicycle_parking": "stands", "capacity": "8", "covered": "no"}}, {"type": "Feature", "id": 11228225794, "geometry": {"type": "Point", "coordinates": [-122.344065, 47.73932]}, "properties": {"addr:housenumber": "15206", "addr:street": "Aurora Avenue North", "check_date": "2023-09-29", "name": "Fil-Am Food & Gifts", "shop": "convenience"}}]}