{"type": "FeatureCollection", "features": [{"type": "Feature", "id": 2329698041, "geometry": {"type": "Point", "coordinates": [-119.11379, 46.241824]}, "properties": {}}, {"type": "Feature", "id": 2329698044, "geometry": {"type": "Point", "coordinates": [-119.114469, 46.241828]}, "properties": {}}, {"type": "Feature", "id": 2329698074, "geometry": {"type": "Point", "coordinates": [-119.113788, 46.242001]}, "properties": {}}, {"type": "Feature", "id": 2329698075, "geometry": {"type": "Point", "coordinates": [-119.114467, 46.242005]}, "properties": {}}, {"type": "Feature", "id": 6322027958, "geometry": {"type": "Point", "coordinates": [-119.114286, 46.241911]}, "properties": {"addr:city": "Pasco", "addr:postcode": "99301", "addr:state": "WA", "addr:street": "Court Street", "amenity": "restaurant", "cuisine": "mexican", "name": "Trejo's Mexican Restaurant", "opening_hours:signed": "no", "phone": "+1-509-547-8861"}}, {"type": "Feature", "id": 6322027960, "geometry": {"type": "Point", "coordinates": [-119.113887, 46.241907]}, "properties": {"addr:city": "Pasco", "addr:housenumber": "1825", "addr:postcode": "99301", "addr:state": "WA", "addr:street": "West Court Street", "amenity": "marketplace", "fax": "+1 509-545-0833", "name": "Amarilis's Meat Market", "opening_hours": "Mo-Su 08:00-22:00", "phone": "+1 509-545-4744"}}]}