{"type": "FeatureCollection", "features": [{"type": "Feature", "id": 510579671, "geometry": {"type": "Point", "coordinates": [-117.424161, 47.66]}, "properties": {}}, {"type": "Feature", "id": 510579677, "geometry": {"type": "Point", "coordinates": [-117.42485, 47.659997]}, "properties": {}}, {"type": "Feature", "id": 510579682, "geometry": {"type": "Point", "coordinates": [-117.424846, 47.659486]}, "properties": {}}, {"type": "Feature", "id": 510579689, "geometry": {"type": "Point", "coordinates": [-117.424842, 47.659166]}, "properties": {}}, {"type": "Feature", "id": 510579706, "geometry": {"type": "Point", "coordinates": [-117.422161, 47.659169]}, "properties": {}}, {"type": "Feature", "id": 510579709, "geometry": {"type": "Point", "coordinates": [-117.422815, 47.659567]}, "properties": {}}, {"type": "Feature", "id": 510593178, "geometry": {"type": "Point", "coordinates": [-117.423447, 47.660003]}, "properties": {"amenity": "parking_entrance"}}, {"type": "Feature", "id": 510593179, "geometry": {"type": "Point", "coordinates": [-117.423623, 47.660002]}, "properties": {"amenity": "parking_entrance", "covered": "yes"}}, {"type": "Feature", "id": 510593690, "geometry": {"type": "Point", "coordinates": [-117.424722, 47.65946]}, "properties": {"access": "yes", "amenity": "parking", "fee": "yes", "parking": "multi-storey"}}, {"type": "Feature", "id": 1322438704, "geometry": {"type": "Point", "coordinates": [-117.424133, 47.659169]}, "properties": {}}, {"type": "Feature", "id": 1322438708, "geometry": {"type": "Point", "coordinates": [-117.422163, 47.659448]}, "properties": {}}, {"type": "Feature", "id": 2146878428, "geometry": {"type": "Point", "coordinates": [-117.424846, 47.659565]}, "properties": {"amenity": "parking_entrance"}}, {"type": "Feature", "id": 2614425877, "geometry": {"type": "Point", "coordinates": [-117.422818, 47.659174]}, "properties": {}}, {"type": "Feature", "id": 4465800841, "geometry": {"type": "Point", "coordinates": [-117.422297, 47.659215]}, "properties": {"brand": "Urban Outfitters", "brand:wikidata": "Q3552193", "brand:wikipedia": "en:Urban Outfitters", "level": "1", "name": "Urban Outfitters", "shop": "clothes"}}, {"type": "Feature", "id": 5115797579, "geometry": {"type": "Point", "coordinates": [-117.423551, 47.659629]}, "properties": {"amenity": "cinema", "brand": "AMC", "brand:wikidata": "Q294721", "brand:wikipedia": "en:AMC Theatres", "name": "AMC River Park Square 20", "website": "https://www.amctheatres.com/movie-theatres/spokane/amc-river-park-square-20", "wikidata": "Q43306844"}}, {"type": "Feature", "id": 9380267060, "geometry": {"type": "Point", "coordinates": [-117.42335, 47.659208]}, "properties": {"addr:city": "Spokane", "addr:housenumber": "722", "addr:postcode": "99201", "addr:state": "WA", "addr:street": "West Main Avenue", "addr:unit": "115", "brand": "Banana Republic", "brand:wikidata": "Q806085", "brand:wikipedia": "en:Banana Republic", "clothes": "men;women", "level": "1", "name": "Banana Republic", "opening_hours": "Mo-Th 10:00-20:00; Fr-Sa 10:00-18:00; Su 11:00-18:00", "shop": "clothes", "website": "https://bananarepublic.gap.com/stores/wa/spokane/banana-republic-8475.html"}}, {"type": "Feature", "id": 9380267061, "geometry": {"type": "Point", "coordinates": [-117.424581, 47.659585]}, "properties": {"addr:city": "Spokane", "addr:housenumber": "828", "addr:postcode": "99201", "addr:state": "WA", "addr:street": "West Main Avenue", "brand": "Nordstrom", "brand:wikidata": "Q174310", "brand:wikipedia": "en:Nordstrom", "level": "1,_2", "name": "Nordstrom", "opening_hours": "Mo-Sa 10:00-20:00; Su 11:00-18:00", "phone": "+1-509-455-6111", "shop": "department_store", "website": "https://www.nordstrom.com/store-details/nordstrom-spokane"}}, {"type": "Feature", "id": 9380267062, "geometry": {"type": "Point", "coordinates": [-117.423359, 47.659312]}, "properties": {"addr:city": "Spokane", "addr:housenumber": "808", "addr:postcode": "99201", "addr:state": "WA", "addr:street": "West Main Avenue", "addr:unit": "235", "brand": "Athleta", "brand:wikidata": "Q105722424", "clothes": "women", "level": "2", "name": "Athleta", "opening_hours": "Mo-Th 10:00-20:00; Fr-Sa 10:00-18:00; Su 11:00-18:00", "phone": "+1-509-456-4078", "shop": "clothes", "website": "https://athleta.gap.com/stores/wa/spokane/athleta-7084.html"}}, {"type": "Feature", "id": 9380267063, "geometry": {"type": "Point", "coordinates": [-117.423744, 47.659349]}, "properties": {"addr:city": "Spokane", "addr:housenumber": "808", "addr:postcode": "99201", "addr:state": "WA", "addr:street": "West Main Avenue", "addr:unit": "231", "brand": "Gap", "brand:wikidata": "Q420822", "brand:wikipedia": "en:Gap Inc.", "level": "2", "name": "Gap", "opening_hours": "Mo-Th 10:00-20:00; Fr-Sa 10:00-18:00; Su 11:00-18:00", "phone": "+1-509-456-6584", "shop": "clothes", "website": "https://www.gap.com/stores/wa/spokane/gap-7501.html"}}, {"type": "Feature", "id": 11017102332, "geometry": {"type": "Point", "coordinates": [-117.422167, 47.659574]}, "properties": {}}, {"type": "Feature", "id": 11423717936, "geometry": {"type": "Point", "coordinates": [-117.42282, 47.660005]}, "properties": {}}, {"type": "Feature", "id": 11423717937, "geometry": {"type": "Point", "coordinates": [-117.422164, 47.659577]}, "properties": {}}, {"type": "Feature", "id": 11423717939, "geometry": {"type": "Point", "coordinates": [-117.422816, 47.659606]}, "properties": {}}, {"type": "Feature", "id": 11445460409, "geometry": {"type": "Point", "coordinates": [-117.422595, 47.659218]}, "properties": {"brand": "Apple Store", "brand:wikidata": "Q421253", "name": "Apple Store", "shop": "electronics", "short_name": "Apple"}}, {"type": "Feature", "id": 11456448937, "geometry": {"type": "Point", "coordinates": [-117.422819, 47.659452]}, "properties": {}}, {"type": "Feature", "id": 11456448938, "geometry": {"type": "Point", "coordinates": [-117.424145, 47.65949]}, "properties": {}}, {"type": "Feature", "id": 11467746431, "geometry": {"type": "Point", "coordinates": [-117.422794, 47.659202]}, "properties": {"brand": "Lego", "brand:wikidata": "Q1063455", "name": "Lego", "shop": "toys"}}, {"type": "Feature", "id": 11467746432, "geometry": {"type": "Point", "coordinates": [-117.422428, 47.659212]}, "properties": {"brand": "The North Face", "brand:wikidata": "Q152784", "clothes": "outdoor", "name": "The North Face", "shop": "clothes"}}, {"type": "Feature", "id": 11467751281, "geometry": {"type": "Point", "coordinates": [-117.422246, 47.659569]}, "properties": {}}, {"type": "Feature", "id": 11467751282, "geometry": {"type": "Point", "coordinates": [-117.422246, 47.659576]}, "properties": {}}, {"type": "Feature", "id": 11467751283, "geometry": {"type": "Point", "coordinates": [-117.422324, 47.659169]}, "properties": {}}, {"type": "Feature", "id": 11467751284, "geometry": {"type": "Point", "coordinates": [-117.422327, 47.659176]}, "properties": {}}]}