{"type": "FeatureCollection", "features": [{"type": "Feature", "id": 3788313796, "geometry": {"type": "Point", "coordinates": [-123.104106, 48.094992]}, "properties": {}}, {"type": "Feature", "id": 6486173098, "geometry": {"type": "Point", "coordinates": [-123.103925, 48.094861]}, "properties": {"addr:city": "Sequim", "addr:housenumber": "10131", "addr:postcode": "98382", "addr:state": "WA", "addr:street": "Old Olympic Highway", "brand": "Anytime Fitness", "brand:wikidata": "Q4778364", "leisure": "fitness_centre", "name": "Anytime Fitness", "opening_hours": "24/7", "phone": "+1 (360) 683-4110", "sport": "weightlifting;running", "website": "https://www.anytimefitness.com/gyms/1959/Sequim-WA-98382/"}}, {"type": "Feature", "id": 10696137091, "geometry": {"type": "Point", "coordinates": [-123.104119, 48.094497]}, "properties": {}}, {"type": "Feature", "id": 10696137092, "geometry": {"type": "Point", "coordinates": [-123.10385, 48.094503]}, "properties": {}}, {"type": "Feature", "id": 10696137094, "geometry": {"type": "Point", "coordinates": [-123.103674, 48.094777]}, "properties": {}}, {"type": "Feature", "id": 10696137095, "geometry": {"type": "Point", "coordinates": [-123.102763, 48.094786]}, "properties": {}}, {"type": "Feature", "id": 10696137096, "geometry": {"type": "Point", "coordinates": [-123.102771, 48.094994]}, "properties": {}}, {"type": "Feature", "id": 10696139805, "geometry": {"type": "Point", "coordinates": [-123.103023, 48.094994]}, "properties": {}}, {"type": "Feature", "id": 10696139806, "geometry": {"type": "Point", "coordinates": [-123.103025, 48.094782]}, "properties": {}}, {"type": "Feature", "id": 10696139816, "geometry": {"type": "Point", "coordinates": [-123.103089, 48.094886]}, "properties": {"addr:city": "Sequim", "addr:housenumber": "10167", "addr:state": "WA", "addr:street": "Old Olympic Highway", "name": "Elle Salon", "operator": "Kathy Otos", "shop": "hairdresser"}}, {"type": "Feature", "id": 10696139817, "geometry": {"type": "Point", "coordinates": [-123.103238, 48.094843]}, "properties": {"addr:city": "Sequim", "addr:housenumber": "10159", "addr:state": "WA", "addr:street": "Old Olympic Highway", "name": "Bonita's Pet Supplies", "shop": "yes"}}, {"type": "Feature", "id": 10700680520, "geometry": {"type": "Point", "coordinates": [-123.103828, 48.094703]}, "properties": {}}, {"type": "Feature", "id": 10700680521, "geometry": {"type": "Point", "coordinates": [-123.103825, 48.094637]}, "properties": {}}, {"type": "Feature", "id": 10700680522, "geometry": {"type": "Point", "coordinates": [-123.103857, 48.094636]}, "properties": {}}, {"type": "Feature", "id": 10700680523, "geometry": {"type": "Point", "coordinates": [-123.103799, 48.094694]}, "properties": {}}, {"type": "Feature", "id": 10700680524, "geometry": {"type": "Point", "coordinates": [-123.1029, 48.094882]}, "properties": {"addr:city": "Sequim", "addr:housenumber": "10181", "addr:postcode": "98382", "addr:state": "WA", "addr:street": "Old Olympic Highway", "name": "Olympic Hot Tub", "opening_hours": "Mo-Su 10:00-18:00", "phone": "+13603514250", "shop": "hot_tubs"}}]}