{"type": "FeatureCollection", "features": [{"type": "Feature", "id": 5618751223, "geometry": {"type": "Point", "coordinates": [-122.697111, 47.64982]}, "properties": {}}, {"type": "Feature", "id": 5618751224, "geometry": {"type": "Point", "coordinates": [-122.696688, 47.649817]}, "properties": {}}, {"type": "Feature", "id": 5618751225, "geometry": {"type": "Point", "coordinates": [-122.696761, 47.648371]}, "properties": {}}, {"type": "Feature", "id": 5618751226, "geometry": {"type": "Point", "coordinates": [-122.696916, 47.648212]}, "properties": {}}, {"type": "Feature", "id": 5618751227, "geometry": {"type": "Point", "coordinates": [-122.69718, 47.648245]}, "properties": {}}, {"type": "Feature", "id": 5618751228, "geometry": {"type": "Point", "coordinates": [-122.696968, 47.649822]}, "properties": {}}, {"type": "Feature", "id": 5618751229, "geometry": {"type": "Point", "coordinates": [-122.696957, 47.649967]}, "properties": {}}, {"type": "Feature", "id": 5618751230, "geometry": {"type": "Point", "coordinates": [-122.696808, 47.649969]}, "properties": {}}, {"type": "Feature", "id": 5618751231, "geometry": {"type": "Point", "coordinates": [-122.696808, 47.649818]}, "properties": {}}, {"type": "Feature", "id": 5618751232, "geometry": {"type": "Point", "coordinates": [-122.696859, 47.648968]}, "properties": {"brand": "Grocery Outlet", "brand:wikidata": "Q5609934", "brand:wikipedia": "en:Grocery Outlet", "name": "Grocery Outlet", "official_name": "Grocery Outlet Bargain Market", "shop": "supermarket"}}, {"type": "Feature", "id": 5618751233, "geometry": {"type": "Point", "coordinates": [-122.69689, 47.64978]}, "properties": {"amenity": "bank", "name": "Kitsap Credit Union"}}, {"type": "Feature", "id": 8711169065, "geometry": {"type": "Point", "coordinates": [-122.696843, 47.649574]}, "properties": {"amenity": "restaurant", "cuisine": "chinese;mongolian_grill;bar", "name": "Golden Grill Mongolian BBQ", "website": "https://www.mongolounge.com/"}}, {"type": "Feature", "id": 10096136163, "geometry": {"type": "Point", "coordinates": [-122.696984, 47.648401]}, "properties": {"addr:city": "Silverdale", "addr:country": "US", "addr:housenumber": "9337", "addr:postcode": "98383", "addr:state": "WA", "addr:street": "Silverdale Way Northwest", "brand": "Harbor Freight Tools", "name": "Harbor Freight Tools", "opening_hours": "Mo,Tu,We,Th,Fr 08:00-20:00; Sa 09:00-18:00", "shop": "hardware", "wheelchair": "yes"}}]}