{"type": "FeatureCollection", "features": [{"type": "Feature", "id": 35909767, "geometry": {"type": "Point", "coordinates": [-122.470297, 47.215647]}, "properties": {}}, {"type": "Feature", "id": 35909768, "geometry": {"type": "Point", "coordinates": [-122.472213, 47.215709]}, "properties": {}}, {"type": "Feature", "id": 35909769, "geometry": {"type": "Point", "coordinates": [-122.472211, 47.216474]}, "properties": {}}, {"type": "Feature", "id": 35909770, "geometry": {"type": "Point", "coordinates": [-122.470994, 47.216427]}, "properties": {}}, {"type": "Feature", "id": 35909771, "geometry": {"type": "Point", "coordinates": [-122.470993, 47.216526]}, "properties": {}}, {"type": "Feature", "id": 35909772, "geometry": {"type": "Point", "coordinates": [-122.469258, 47.216522]}, "properties": {}}, {"type": "Feature", "id": 35909773, "geometry": {"type": "Point", "coordinates": [-122.469549, 47.216827]}, "properties": {}}, {"type": "Feature", "id": 35909774, "geometry": {"type": "Point", "coordinates": [-122.469255, 47.216827]}, "properties": {}}, {"type": "Feature", "id": 35909775, "geometry": {"type": "Point", "coordinates": [-122.469255, 47.216902]}, "properties": {}}, {"type": "Feature", "id": 35909776, "geometry": {"type": "Point", "coordinates": [-122.468385, 47.216901]}, "properties": {}}, {"type": "Feature", "id": 35909777, "geometry": {"type": "Point", "coordinates": [-122.468385, 47.216828]}, "properties": {}}, {"type": "Feature", "id": 35909778, "geometry": {"type": "Point", "coordinates": [-122.46809, 47.216828]}, "properties": {}}, {"type": "Feature", "id": 35909779, "geometry": {"type": "Point", "coordinates": [-122.468091, 47.216598]}, "properties": {}}, {"type": "Feature", "id": 35909780, "geometry": {"type": "Point", "coordinates": [-122.466071, 47.216631]}, "properties": {}}, {"type": "Feature", "id": 35909781, "geometry": {"type": "Point", "coordinates": [-122.46607, 47.216715]}, "properties": {}}, {"type": "Feature", "id": 35909790, "geometry": {"type": "Point", "coordinates": [-122.465278, 47.216712]}, "properties": {}}, {"type": "Feature", "id": 35909791, "geometry": {"type": "Point", "coordinates": [-122.465283, 47.215175]}, "properties": {}}, {"type": "Feature", "id": 35909792, "geometry": {"type": "Point", "coordinates": [-122.467813, 47.215179]}, "properties": {}}, {"type": "Feature", "id": 35909793, "geometry": {"type": "Point", "coordinates": [-122.467811, 47.215635]}, "properties": {}}, {"type": "Feature", "id": 35909795, "geometry": {"type": "Point", "coordinates": [-122.468722, 47.215503]}, "properties": {}}, {"type": "Feature", "id": 35909796, "geometry": {"type": "Point", "coordinates": [-122.469057, 47.215717]}, "properties": {}}, {"type": "Feature", "id": 35909797, "geometry": {"type": "Point", "coordinates": [-122.469057, 47.215616]}, "properties": {}}, {"type": "Feature", "id": 35909799, "geometry": {"type": "Point", "coordinates": [-122.46925, 47.215617]}, "properties": {}}, {"type": "Feature", "id": 35909800, "geometry": {"type": "Point", "coordinates": [-122.469251, 47.21551]}, "properties": {}}, {"type": "Feature", "id": 35909801, "geometry": {"type": "Point", "coordinates": [-122.469211, 47.21551]}, "properties": {}}, {"type": "Feature", "id": 35909802, "geometry": {"type": "Point", "coordinates": [-122.469212, 47.215175]}, "properties": {}}, {"type": "Feature", "id": 35909803, "geometry": {"type": "Point", "coordinates": [-122.470191, 47.215177]}, "properties": {}}, {"type": "Feature", "id": 35909804, "geometry": {"type": "Point", "coordinates": [-122.470189, 47.215562]}, "properties": {}}, {"type": "Feature", "id": 35909805, "geometry": {"type": "Point", "coordinates": [-122.469928, 47.215561]}, "properties": {}}, {"type": "Feature", "id": 35909806, "geometry": {"type": "Point", "coordinates": [-122.46993, 47.215696]}, "properties": {}}, {"type": "Feature", "id": 35909807, "geometry": {"type": "Point", "coordinates": [-122.470061, 47.215696]}, "properties": {}}, {"type": "Feature", "id": 35909808, "geometry": {"type": "Point", "coordinates": [-122.470061, 47.215646]}, "properties": {}}, {"type": "Feature", "id": 1835567415, "geometry": {"type": "Point", "coordinates": [-122.472333, 47.216454]}, "properties": {}}, {"type": "Feature", "id": 1835567421, "geometry": {"type": "Point", "coordinates": [-122.472361, 47.21638]}, "properties": {}}, {"type": "Feature", "id": 1835567422, "geometry": {"type": "Point", "coordinates": [-122.472211, 47.216454]}, "properties": {}}, {"type": "Feature", "id": 1835567431, "geometry": {"type": "Point", "coordinates": [-122.471358, 47.21572]}, "properties": {}}, {"type": "Feature", "id": 1835567438, "geometry": {"type": "Point", "coordinates": [-122.472333, 47.21638]}, "properties": {}}, {"type": "Feature", "id": 1835567440, "geometry": {"type": "Point", "coordinates": [-122.472362, 47.216103]}, "properties": {}}, {"type": "Feature", "id": 1835567451, "geometry": {"type": "Point", "coordinates": [-122.47233, 47.215727]}, "properties": {}}, {"type": "Feature", "id": 1835567454, "geometry": {"type": "Point", "coordinates": [-122.472213, 47.215727]}, "properties": {}}, {"type": "Feature", "id": 1835567471, "geometry": {"type": "Point", "coordinates": [-122.472378, 47.216103]}, "properties": {}}, {"type": "Feature", "id": 1835567498, "geometry": {"type": "Point", "coordinates": [-122.472379, 47.215902]}, "properties": {}}, {"type": "Feature", "id": 1835567504, "geometry": {"type": "Point", "coordinates": [-122.472358, 47.215902]}, "properties": {}}, {"type": "Feature", "id": 1835567542, "geometry": {"type": "Point", "coordinates": [-122.47233, 47.215795]}, "properties": {}}, {"type": "Feature", "id": 1835567546, "geometry": {"type": "Point", "coordinates": [-122.472358, 47.215795]}, "properties": {}}, {"type": "Feature", "id": 4283184922, "geometry": {"type": "Point", "coordinates": [-122.465357, 47.216553]}, "properties": {"alt_name": "Chipotle Mexican Grill", "amenity": "fast_food", "brand": "Chipotle", "brand:wikidata": "Q465751", "brand:wikipedia": "en:Chipotle Mexican Grill", "contact:website": "https://chipotle.com/", "cuisine": "mexican", "name": "Chipotle", "official_name": "Chipotle Mexican Grill", "opening_hours": "Mo-Sa 10:00-21:00; Su 10:00-19:00", "takeaway": "yes"}}, {"type": "Feature", "id": 4283194433, "geometry": {"type": "Point", "coordinates": [-122.465393, 47.216291]}, "properties": {"amenity": "fast_food", "brand": "Panera Bread", "brand:wikidata": "Q7130852", "brand:wikipedia": "en:Panera Bread", "cuisine": "sandwich;bakery", "name": "Panera Bread", "opening_hours": "Mo-Sa 10:00-21:00; Su 10:00-19:00", "short_name": "Panera", "takeaway": "yes"}}, {"type": "Feature", "id": 4283196817, "geometry": {"type": "Point", "coordinates": [-122.465698, 47.216057]}, "properties": {}}, {"type": "Feature", "id": 4500812090, "geometry": {"type": "Point", "coordinates": [-122.471354, 47.216376]}, "properties": {}}, {"type": "Feature", "id": 5745965011, "geometry": {"type": "Point", "coordinates": [-122.470035, 47.216059]}, "properties": {"brand": "See's Candies", "brand:wikidata": "Q2103510", "brand:wikipedia": "en:See's Candies", "name": "See's Candies", "opening_hours": "Mo-Sa 10:00-21:00; Su 10:00-19:00", "shop": "confectionery"}}, {"type": "Feature", "id": 5745965012, "geometry": {"type": "Point", "coordinates": [-122.47021, 47.216061]}, "properties": {"brand": "Express", "brand:wikidata": "Q1384784", "brand:wikipedia": "en:Express, Inc.", "name": "Express", "opening_hours": "Mo-Sa 10:00-21:00; Su 10:00-19:00", "shop": "clothes"}}, {"type": "Feature", "id": 5745965013, "geometry": {"type": "Point", "coordinates": [-122.470592, 47.216067]}, "properties": {"brand": "Old Navy", "brand:wikidata": "Q2735242", "brand:wikipedia": "en:Old Navy", "name": "Old Navy", "opening_hours": "Mo-Sa 10:00-21:00; Su 10:00-19:00", "shop": "clothes"}}, {"type": "Feature", "id": 5745965014, "geometry": {"type": "Point", "coordinates": [-122.470931, 47.216077]}, "properties": {"name": "Brow Arc", "opening_hours": "Mo-Sa 10:00-21:00; Su 10:00-19:00", "shop": "beauty"}}, {"type": "Feature", "id": 5745965015, "geometry": {"type": "Point", "coordinates": [-122.470995, 47.216053]}, "properties": {"brand": "FYE", "brand:wikidata": "Q5424141", "brand:wikipedia": "en:FYE (retailer)", "name": "FYE", "opening_hours": "Mo-Sa 10:00-21:00; Su 10:00-19:00", "shop": "music"}}, {"type": "Feature", "id": 5745965016, "geometry": {"type": "Point", "coordinates": [-122.470963, 47.215648]}, "properties": {}}, {"type": "Feature", "id": 5745965017, "geometry": {"type": "Point", "coordinates": [-122.470963, 47.215668]}, "properties": {}}, {"type": "Feature", "id": 5745965018, "geometry": {"type": "Point", "coordinates": [-122.470995, 47.215667]}, "properties": {}}, {"type": "Feature", "id": 5745965019, "geometry": {"type": "Point", "coordinates": [-122.470995, 47.215659]}, "properties": {}}, {"type": "Feature", "id": 5745965020, "geometry": {"type": "Point", "coordinates": [-122.471058, 47.215659]}, "properties": {}}, {"type": "Feature", "id": 5745965421, "geometry": {"type": "Point", "coordinates": [-122.471123, 47.215658]}, "properties": {}}, {"type": "Feature", "id": 5745965422, "geometry": {"type": "Point", "coordinates": [-122.471124, 47.215689]}, "properties": {}}, {"type": "Feature", "id": 5745965423, "geometry": {"type": "Point", "coordinates": [-122.471358, 47.215687]}, "properties": {}}, {"type": "Feature", "id": 5745965424, "geometry": {"type": "Point", "coordinates": [-122.471057, 47.216108]}, "properties": {}}, {"type": "Feature", "id": 5745965425, "geometry": {"type": "Point", "coordinates": [-122.471152, 47.216002]}, "properties": {"amenity": "restaurant", "cuisine": "sushi", "name": "Sushi Express", "opening_hours": "Mo-Sa 10:00-21:00; Su 10:00-19:00", "wheelchair": "yes"}}, {"type": "Feature", "id": 5745965426, "geometry": {"type": "Point", "coordinates": [-122.471254, 47.216003]}, "properties": {"brand": "T-Mobile", "brand:wikidata": "Q3511885", "brand:wikipedia": "en:T-Mobile US", "name": "T-Mobile", "opening_hours": "Mo-Sa 10:00-21:00; Su 10:00-19:00", "shop": "mobile_phone"}}, {"type": "Feature", "id": 5745965427, "geometry": {"type": "Point", "coordinates": [-122.471064, 47.216194]}, "properties": {"name": "Bergman Luggage", "opening_hours": "Mo-Sa 10:00-21:00; Su 10:00-19:00", "shop": "bag"}}, {"type": "Feature", "id": 5745965428, "geometry": {"type": "Point", "coordinates": [-122.47098, 47.216194]}, "properties": {"amenity": "ice_cream", "brand": "Orange Leaf Frozen Yogurt", "brand:wikidata": "Q18155467", "brand:wikipedia": "en:Orange Leaf Frozen Yogurt", "cuisine": "ice_cream", "name": "Orange Leaf Frozen Yogurt", "opening_hours": "Mo-Sa 10:00-21:00; Su 10:00-19:00"}}, {"type": "Feature", "id": 5745965429, "geometry": {"type": "Point", "coordinates": [-122.471042, 47.2164]}, "properties": {"name": "Tacoma Mall Management Office", "office": "yes"}}, {"type": "Feature", "id": 5745965430, "geometry": {"type": "Point", "coordinates": [-122.470792, 47.216192]}, "properties": {"brand": "Charlotte Russe", "brand:wikidata": "Q5086126", "brand:wikipedia": "en:Charlotte Russe (retailer)", "name": "Charlotte Russe", "opening_hours": "Mo-Sa 10:00-21:00; Su 10:00-19:00", "shop": "clothes"}}, {"type": "Feature", "id": 5745965431, "geometry": {"type": "Point", "coordinates": [-122.470637, 47.216192]}, "properties": {"shop": "vacant"}}, {"type": "Feature", "id": 5745965432, "geometry": {"type": "Point", "coordinates": [-122.470458, 47.216515]}, "properties": {"name": "Gene Juarez Salon & Spa", "opening_hours": "Mo-Sa 10:00-21:00; Su 10:00-19:00", "shop": "hairdresser"}}, {"type": "Feature", "id": 5745965433, "geometry": {"type": "Point", "coordinates": [-122.470254, 47.216192]}, "properties": {"brand": "Aldo", "brand:wikidata": "Q2832297", "brand:wikipedia": "en:Aldo Group", "name": "Aldo", "opening_hours": "Mo-Sa 10:00-21:00; Su 10:00-19:00", "shop": "shoes"}}, {"type": "Feature", "id": 5745965434, "geometry": {"type": "Point", "coordinates": [-122.470039, 47.216185]}, "properties": {"brand": "Pandora", "brand:wikidata": "Q2241604", "brand:wikipedia": "en:Pandora (jewelry)", "name": "Pandora", "opening_hours": "Mo-Sa 10:00-21:00; Su 10:00-19:00", "shop": "jewelry"}}, {"type": "Feature", "id": 5745965435, "geometry": {"type": "Point", "coordinates": [-122.470033, 47.216298]}, "properties": {"brand": "Candy Tyme", "brand:wikidata": "Q108411111", "name": "Candy Tyme", "opening_hours": "Mo-Sa 10:00-21:00; Su 10:00-19:00", "shop": "confectionery"}}, {"type": "Feature", "id": 5745965436, "geometry": {"type": "Point", "coordinates": [-122.470026, 47.216487]}, "properties": {"brand": "Massage Envy", "brand:wikidata": "Q22922899", "brand:wikipedia": "en:Massage Envy", "name": "Massage Envy", "opening_hours": "Mo-Sa 10:00-21:00; Su 10:00-19:00", "shop": "massage"}}, {"type": "Feature", "id": 5745965437, "geometry": {"type": "Point", "coordinates": [-122.469854, 47.216425]}, "properties": {"name": "Game Over Videogames", "opening_hours": "Mo-Sa 10:00-21:00; Su 10:00-19:00", "shop": "video_games"}}, {"type": "Feature", "id": 5745965438, "geometry": {"type": "Point", "coordinates": [-122.46984, 47.21632]}, "properties": {"brand": "Mastercuts", "brand:wikidata": "Q64026258", "name": "Mastercuts", "opening_hours": "Mo-Sa 10:00-21:00; Su 10:00-19:00", "shop": "hairdresser"}}, {"type": "Feature", "id": 5745965439, "geometry": {"type": "Point", "coordinates": [-122.469833, 47.21623]}, "properties": {"amenity": "fast_food", "brand": "Wetzel's Pretzels", "brand:wikidata": "Q7990205", "brand:wikipedia": "en:Wetzel's Pretzels", "cuisine": "pretzel", "name": "Wetzel's Pretzels", "opening_hours": "Mo-Sa 10:00-21:00; Su 10:00-19:00", "takeaway": "yes"}}, {"type": "Feature", "id": 5745965440, "geometry": {"type": "Point", "coordinates": [-122.469833, 47.216177]}, "properties": {"name": "The Art of Shaving", "opening_hours": "Mo-Sa 10:00-21:00; Su 10:00-19:00", "shop": "beauty"}}, {"type": "Feature", "id": 5745965441, "geometry": {"type": "Point", "coordinates": [-122.469745, 47.21618]}, "properties": {"brand": "Michael Kors", "brand:wikidata": "Q19572998", "brand:wikipedia": "en:Capri Holdings", "name": "Michael Kors", "opening_hours": "Mo-Sa 10:00-21:00; Su 10:00-19:00", "shop": "clothes"}}, {"type": "Feature", "id": 5745965442, "geometry": {"type": "Point", "coordinates": [-122.469913, 47.216545]}, "properties": {}}, {"type": "Feature", "id": 5745965443, "geometry": {"type": "Point", "coordinates": [-122.469913, 47.216119]}, "properties": {}}, {"type": "Feature", "id": 5745965444, "geometry": {"type": "Point", "coordinates": [-122.469658, 47.216181]}, "properties": {"brand": "Lush", "brand:wikidata": "Q1585448", "brand:wikipedia": "en:Lush (company)", "name": "Lush", "opening_hours": "Mo-Sa 10:00-21:00; Su 10:00-19:00", "shop": "cosmetics"}}, {"type": "Feature", "id": 5745965445, "geometry": {"type": "Point", "coordinates": [-122.469562, 47.21618]}, "properties": {"brand": "White House Black Market", "brand:wikidata": "Q7994858", "brand:wikipedia": "en:White House Black Market", "name": "White House Black Market", "opening_hours": "Mo-Sa 10:00-21:00; Su 10:00-19:00", "shop": "clothes"}}, {"type": "Feature", "id": 5745965446, "geometry": {"type": "Point", "coordinates": [-122.469406, 47.216172]}, "properties": {"brand": "Gap", "brand:wikidata": "Q420822", "brand:wikipedia": "en:Gap Inc.", "name": "Gap", "opening_hours": "Mo-Sa 10:00-21:00; Su 10:00-19:00", "shop": "clothes"}}, {"type": "Feature", "id": 5745965447, "geometry": {"type": "Point", "coordinates": [-122.469196, 47.216181]}, "properties": {"brand": "bareMinerals", "brand:wikidata": "Q66740659", "name": "bareMinerals", "opening_hours": "Mo-Sa 10:00-21:00; Su 10:00-19:00", "shop": "cosmetics"}}, {"type": "Feature", "id": 5745965448, "geometry": {"type": "Point", "coordinates": [-122.466535, 47.216181]}, "properties": {"brand": "Sunglass Hut", "brand:wikidata": "Q136311", "brand:wikipedia": "en:Sunglass Hut", "name": "Sunglass Hut", "opening_hours": "Mo-Sa 10:00-21:00; Su 10:00-19:00", "shop": "optician"}}, {"type": "Feature", "id": 5745965449, "geometry": {"type": "Point", "coordinates": [-122.466727, 47.21618]}, "properties": {"name": "Piercing Pagoda", "opening_hours": "Mo-Sa 10:00-21:00; Su 10:00-19:00", "shop": "beauty"}}, {"type": "Feature", "id": 5745965450, "geometry": {"type": "Point", "coordinates": [-122.468796, 47.216047]}, "properties": {"name": "Washington State Lottery", "opening_hours": "Mo-Sa 10:00-21:00; Su 10:00-19:00", "shop": "yes"}}, {"type": "Feature", "id": 5745965451, "geometry": {"type": "Point", "coordinates": [-122.468907, 47.216149]}, "properties": {"brand": "T-Mobile", "brand:wikidata": "Q3511885", "brand:wikipedia": "en:T-Mobile US", "name": "T-Mobile", "opening_hours": "Mo-Sa 10:00-21:00; Su 10:00-19:00", "shop": "mobile_phone"}}, {"type": "Feature", "id": 5745965452, "geometry": {"type": "Point", "coordinates": [-122.469561, 47.216047]}, "properties": {"brand": "Apple Store", "brand:wikidata": "Q421253", "brand:wikipedia": "en:Apple Store", "name": "Apple Store", "opening_hours": "Mo-Sa 10:00-21:00; Su 10:00-19:00", "shop": "electronics", "short_name": "Apple"}}, {"type": "Feature", "id": 5745965453, "geometry": {"type": "Point", "coordinates": [-122.46941, 47.216053]}, "properties": {"brand": "Sephora", "brand:wikidata": "Q2408041", "brand:wikipedia": "en:Sephora", "name": "Sephora", "opening_hours": "Mo-Sa 10:00-21:00; Su 10:00-19:00", "shop": "cosmetics"}}, {"type": "Feature", "id": 5745965454, "geometry": {"type": "Point", "coordinates": [-122.469245, 47.216046]}, "properties": {"brand": "Pink", "brand:wikidata": "Q20716793", "brand:wikipedia": "en:Pink (Victoria's Secret)", "clothes": "underwear;women", "name": "Pink", "opening_hours": "Mo-Sa 10:00-21:00; Su 10:00-19:00", "shop": "clothes"}}, {"type": "Feature", "id": 5745965455, "geometry": {"type": "Point", "coordinates": [-122.468976, 47.216043]}, "properties": {"amenity": "cafe", "name": "J Louis Cakes, Gelato, & More", "opening_hours": "Mo-Sa 10:00-21:00; Su 10:00-19:00"}}, {"type": "Feature", "id": 5745965456, "geometry": {"type": "Point", "coordinates": [-122.468896, 47.216041]}, "properties": {"brand": "Kay Jewelers", "brand:wikidata": "Q62029290", "brand:wikipedia": "en:Sterling Jewelers", "name": "Kay Jewelers", "opening_hours": "Mo-Sa 10:00-21:00; Su 10:00-19:00", "shop": "jewelry"}}, {"type": "Feature", "id": 5745965457, "geometry": {"type": "Point", "coordinates": [-122.468907, 47.215827]}, "properties": {"brand": "Sleep Number", "brand:wikidata": "Q7447640", "brand:wikipedia": "en:Sleep Number", "name": "Sleep Number", "opening_hours": "Mo-Sa 10:00-21:00; Su 10:00-19:00", "shop": "bed"}}, {"type": "Feature", "id": 5745965458, "geometry": {"type": "Point", "coordinates": [-122.468813, 47.215746]}, "properties": {}}, {"type": "Feature", "id": 5745965459, "geometry": {"type": "Point", "coordinates": [-122.468014, 47.215068]}, "properties": {"brand": "AT&T", "brand:wikidata": "Q298594", "brand:wikipedia": "en:AT&T Mobility", "name": "AT&T", "opening_hours": "Mo-Sa 10:00-21:00; Su 10:00-19:00", "shop": "mobile_phone"}}, {"type": "Feature", "id": 5745965460, "geometry": {"type": "Point", "coordinates": [-122.46814, 47.215126]}, "properties": {"alt_name": "Walking Company", "brand": "The Walking Company", "brand:wikidata": "Q30716262", "brand:wikipedia": "en:The Walking Company", "name": "The Walking Company", "opening_hours": "Mo-Sa 10:00-21:00; Su 10:00-19:00", "shop": "shoes"}}, {"type": "Feature", "id": 5745965461, "geometry": {"type": "Point", "coordinates": [-122.468636, 47.215458]}, "properties": {"alt_name": "Cheesecake Factory", "amenity": "restaurant", "brand": "The Cheesecake Factory", "brand:wikidata": "Q1045842", "brand:wikipedia": "en:The Cheesecake Factory", "cuisine": "american", "name": "The Cheesecake Factory", "opening_hours": "Mo-Sa 10:00-21:00; Su 10:00-19:00", "wheelchair": "yes"}}, {"type": "Feature", "id": 5745965462, "geometry": {"type": "Point", "coordinates": [-122.468491, 47.216101]}, "properties": {"brand": "Francesca's", "brand:wikidata": "Q72982331", "clothes": "women;luxury", "name": "Francesca's", "opening_hours": "Mo-Sa 10:00-21:00; Su 10:00-19:00", "shop": "clothes"}}, {"type": "Feature", "id": 5745965463, "geometry": {"type": "Point", "coordinates": [-122.468338, 47.216119]}, "properties": {"brand": "Bath & Body Works", "brand:wikidata": "Q810773", "brand:wikipedia": "en:Bath & Body Works", "name": "Bath & Body Works", "opening_hours": "Mo-Sa 10:00-21:00; Su 10:00-19:00", "shop": "cosmetics"}}, {"type": "Feature", "id": 5745965464, "geometry": {"type": "Point", "coordinates": [-122.468194, 47.216141]}, "properties": {"brand": "H&M", "brand:wikidata": "Q188326", "brand:wikipedia": "en:H&M", "name": "H&M", "opening_hours": "Mo-Sa 10:00-21:00; Su 10:00-19:00", "shop": "clothes"}}, {"type": "Feature", "id": 5745965465, "geometry": {"type": "Point", "coordinates": [-122.46803, 47.216143]}, "properties": {"brand": "Buckle", "brand:wikidata": "Q4983306", "brand:wikipedia": "en:Buckle (clothing retailer)", "clothes": "men;women;children", "name": "Buckle", "opening_hours": "Mo-Sa 10:00-21:00; Su 10:00-19:00", "shop": "clothes"}}, {"type": "Feature", "id": 5745965466, "geometry": {"type": "Point", "coordinates": [-122.467885, 47.216139]}, "properties": {"brand": "Garage", "brand:wikidata": "Q5521860", "brand:wikipedia": "en:Garage (clothing retailer)", "clothes": "women", "name": "Garage", "opening_hours": "Mo-Sa 10:00-21:00; Su 10:00-19:00", "shop": "clothes"}}, {"type": "Feature", "id": 5745965467, "geometry": {"type": "Point", "coordinates": [-122.467609, 47.216138]}, "properties": {"brand": "Tillys", "brand:wikidata": "Q7802889", "brand:wikipedia": "en:Tillys", "clothes": "children;men;women", "name": "Tillys", "opening_hours": "Mo-Sa 10:00-21:00; Su 10:00-19:00", "shop": "clothes"}}, {"type": "Feature", "id": 5745965468, "geometry": {"type": "Point", "coordinates": [-122.468266, 47.216267]}, "properties": {"brand": "Victoria's Secret", "brand:wikidata": "Q332477", "brand:wikipedia": "en:Victoria's Secret", "clothes": "underwear;women", "name": "Victoria's Secret", "opening_hours": "Mo-Sa 10:00-21:00; Su 10:00-19:00", "shop": "clothes"}}, {"type": "Feature", "id": 5745965469, "geometry": {"type": "Point", "coordinates": [-122.46796, 47.216283]}, "properties": {"brand": "Eddie Bauer", "brand:wikidata": "Q842174", "brand:wikipedia": "en:Eddie Bauer", "name": "Eddie Bauer", "opening_hours": "Mo-Sa 10:00-21:00; Su 10:00-19:00", "shop": "clothes"}}, {"type": "Feature", "id": 5745965470, "geometry": {"type": "Point", "coordinates": [-122.467823, 47.216276]}, "properties": {"brand": "American Eagle Outfitters", "brand:wikidata": "Q2842931", "brand:wikipedia": "en:American Eagle Outfitters", "clothes": "men;women", "name": "American Eagle Outfitters", "opening_hours": "Mo-Sa 10:00-21:00; Su 10:00-19:00", "shop": "clothes", "short_name": "American Eagle"}}, {"type": "Feature", "id": 5745965471, "geometry": {"type": "Point", "coordinates": [-122.46766, 47.216274]}, "properties": {"brand": "Torrid", "brand:wikidata": "Q7827120", "brand:wikipedia": "en:Torrid (clothing retailer)", "clothes": "oversize;women", "name": "Torrid", "opening_hours": "Mo-Sa 10:00-21:00; Su 10:00-19:00", "shop": "clothes"}}, {"type": "Feature", "id": 5745965472, "geometry": {"type": "Point", "coordinates": [-122.467545, 47.216271]}, "properties": {"name": "Fuego", "opening_hours": "Mo-Sa 10:00-21:00; Su 10:00-19:00", "shop": "clothes"}}, {"type": "Feature", "id": 5745965473, "geometry": {"type": "Point", "coordinates": [-122.467445, 47.216269]}, "properties": {"branch": "Jewelers", "brand": "Fred Meyer Jewelers", "brand:wikidata": "Q5495935", "brand:wikipedia": "en:Fred Meyer Jewelers", "name": "Fred Meyer Jewelers", "opening_hours": "Mo-Sa 10:00-21:00; Su 10:00-19:00", "shop": "jewelry"}}, {"type": "Feature", "id": 5745965474, "geometry": {"type": "Point", "coordinates": [-122.467427, 47.216345]}, "properties": {"amenity": "cafe", "name": "Dairy Queen / Orange Julius", "opening_hours": "Mo-Sa 10:00-21:00; Su 10:00-19:00"}}, {"type": "Feature", "id": 5745965475, "geometry": {"type": "Point", "coordinates": [-122.467424, 47.216415]}, "properties": {"amenity": "fast_food", "brand": "Auntie Anne's", "brand:wikidata": "Q4822010", "brand:wikipedia": "en:Auntie Anne's", "cuisine": "pretzel", "name": "Auntie Anne's", "opening_hours": "Mo-Sa 10:00-21:00; Su 10:00-19:00", "takeaway": "yes"}}, {"type": "Feature", "id": 5745965476, "geometry": {"type": "Point", "coordinates": [-122.467424, 47.216475]}, "properties": {"brand": "Journeys", "brand:wikidata": "Q61994838", "name": "Journeys Kidz", "opening_hours": "Mo-Sa 10:00-21:00; Su 10:00-19:00", "shop": "shoes"}}, {"type": "Feature", "id": 5745965477, "geometry": {"type": "Point", "coordinates": [-122.467271, 47.216598]}, "properties": {"alt_name": "Jamba Juice", "amenity": "fast_food", "brand": "Jamba", "brand:wikidata": "Q3088784", "brand:wikipedia": "en:Jamba Juice", "cuisine": "juice", "name": "Jamba", "opening_hours": "Mo-Sa 10:00-21:00; Su 10:00-19:00", "takeaway": "yes"}}, {"type": "Feature", "id": 5745965478, "geometry": {"type": "Point", "coordinates": [-122.467264, 47.216532]}, "properties": {"alt_name": "Regis Salons", "brand": "Regis", "brand:wikidata": "Q7309325", "brand:wikipedia": "en:Regis Corporation", "name": "Regis", "opening_hours": "Mo-Sa 10:00-21:00; Su 10:00-19:00", "shop": "hairdresser"}}, {"type": "Feature", "id": 5745965479, "geometry": {"type": "Point", "coordinates": [-122.467259, 47.216469]}, "properties": {"name": "Diamond Nail 'n Spa", "opening_hours": "Mo-Sa 10:00-21:00; Su 10:00-19:00", "shop": "beauty"}}, {"type": "Feature", "id": 5745965480, "geometry": {"type": "Point", "coordinates": [-122.466428, 47.216607]}, "properties": {"brand": "LensCrafters", "brand:wikidata": "Q6523209", "brand:wikipedia": "en:LensCrafters", "name": "LensCrafters", "opening_hours": "Mo-Sa 10:00-21:00; Su 10:00-19:00", "shop": "optician"}}, {"type": "Feature", "id": 5745965481, "geometry": {"type": "Point", "coordinates": [-122.467263, 47.216283]}, "properties": {"brand": "Helzberg Diamonds", "brand:wikidata": "Q16995161", "brand:wikipedia": "en:Helzberg Diamonds", "name": "Helzberg Diamonds", "opening_hours": "Mo-Sa 10:00-21:00; Su 10:00-19:00", "shop": "jewelry"}}, {"type": "Feature", "id": 5745965482, "geometry": {"type": "Point", "coordinates": [-122.467176, 47.216282]}, "properties": {"name": "Concept", "opening_hours": "Mo-Sa 10:00-21:00; Su 10:00-19:00", "shop": "yes"}}, {"type": "Feature", "id": 5745965483, "geometry": {"type": "Point", "coordinates": [-122.467078, 47.216282]}, "properties": {"brand": "Hot Topic", "brand:wikidata": "Q9294032", "brand:wikipedia": "en:Hot Topic", "name": "Hot Topic", "opening_hours": "Mo-Sa 10:00-21:00; Su 10:00-19:00", "shop": "clothes"}}, {"type": "Feature", "id": 5745965484, "geometry": {"type": "Point", "coordinates": [-122.46698, 47.216283]}, "properties": {"brand": "Hollister", "brand:wikidata": "Q1257477", "brand:wikipedia": "en:Hollister Co.", "name": "Hollister", "official_name": "Hollister Co.", "opening_hours": "Mo-Sa 10:00-21:00; Su 10:00-19:00", "shop": "clothes"}}, {"type": "Feature", "id": 5745965485, "geometry": {"type": "Point", "coordinates": [-122.466851, 47.216285]}, "properties": {"brand": "Vans", "brand:wikidata": "Q1135366", "brand:wikipedia": "en:Vans", "name": "Vans", "opening_hours": "Mo-Sa 10:00-21:00; Su 10:00-19:00", "shop": "shoes"}}, {"type": "Feature", "id": 5745965486, "geometry": {"type": "Point", "coordinates": [-122.46672, 47.216283]}, "properties": {"brand": "Gymboree", "brand:wikidata": "Q4039771", "brand:wikipedia": "en:Gymboree", "name": "Gymboree", "shop": "clothes"}}, {"type": "Feature", "id": 5745965487, "geometry": {"type": "Point", "coordinates": [-122.4666, 47.216284]}, "properties": {"brand": "Shiekh", "brand:wikidata": "Q108410987", "name": "Shiekh", "opening_hours": "Mo-Sa 10:00-21:00; Su 10:00-19:00", "shop": "clothes"}}, {"type": "Feature", "id": 5745965488, "geometry": {"type": "Point", "coordinates": [-122.466456, 47.216287]}, "properties": {"name": "Just Sports", "opening_hours": "Mo-Sa 10:00-21:00; Su 10:00-19:00", "shop": "sports"}}, {"type": "Feature", "id": 5745965489, "geometry": {"type": "Point", "coordinates": [-122.466335, 47.216288]}, "properties": {"shop": "vacant"}}, {"type": "Feature", "id": 5745965490, "geometry": {"type": "Point", "coordinates": [-122.466204, 47.216289]}, "properties": {"amenity": "ice_cream", "brand": "Baskin-Robbins", "brand:wikidata": "Q584601", "brand:wikipedia": "en:Baskin-Robbins", "cuisine": "ice_cream", "name": "Baskin-Robbins", "opening_hours": "Mo-Sa 10:00-21:00; Su 10:00-19:00"}}, {"type": "Feature", "id": 5745965491, "geometry": {"type": "Point", "coordinates": [-122.466104, 47.21629]}, "properties": {"name": "Parfumerie", "opening_hours": "Mo-Sa 10:00-21:00; Su 10:00-19:00", "shop": "perfumery"}}, {"type": "Feature", "id": 5745965492, "geometry": {"type": "Point", "coordinates": [-122.465986, 47.216291]}, "properties": {"name": "Weisfield Jewelers", "opening_hours": "Mo-Sa 10:00-21:00; Su 10:00-19:00", "shop": "jewelry"}}, {"type": "Feature", "id": 5745965493, "geometry": {"type": "Point", "coordinates": [-122.465983, 47.216415]}, "properties": {"brand": "Motherhood Maternity", "brand:wikidata": "Q79051139", "clothes": "maternity", "name": "Motherhood Maternity", "opening_hours": "Mo-Sa 10:00-21:00; Su 10:00-19:00", "shop": "clothes"}}, {"type": "Feature", "id": 5745965494, "geometry": {"type": "Point", "coordinates": [-122.46597, 47.216542]}, "properties": {"brand": "Spencer Gifts", "brand:wikidata": "Q7576055", "brand:wikipedia": "en:Spencer Gifts", "name": "Spencer's", "official_name": "Spencer Gifts", "opening_hours": "Mo-Sa 10:00-21:00; Su 10:00-19:00", "shop": "gift"}}, {"type": "Feature", "id": 5745965495, "geometry": {"type": "Point", "coordinates": [-122.465968, 47.216655]}, "properties": {"name": "Red Nails Salon and Spray Tanning", "opening_hours": "Mo-Sa 10:00-21:00; Su 10:00-19:00", "shop": "beauty"}}, {"type": "Feature", "id": 5745965496, "geometry": {"type": "Point", "coordinates": [-122.465723, 47.216646]}, "properties": {"name": "Self Expressions", "opening_hours": "Mo-Sa 10:00-21:00; Su 10:00-19:00", "shop": "yes"}}, {"type": "Feature", "id": 5745965497, "geometry": {"type": "Point", "coordinates": [-122.465364, 47.216642]}, "properties": {"amenity": "fast_food", "brand": "L&L Hawaiian Barbecue", "brand:wikidata": "Q6455441", "brand:wikipedia": "en:L&L Hawaiian Barbecue", "cuisine": "hawaiian", "name": "L&L Hawaiian Barbecue", "opening_hours": "Mo-Sa 10:00-21:00; Su 10:00-19:00", "takeaway": "yes"}}, {"type": "Feature", "id": 5745965498, "geometry": {"type": "Point", "coordinates": [-122.465704, 47.216491]}, "properties": {"branch": "USA", "brand": "Footaction", "brand:wikidata": "Q71022064", "name": "Footaction", "opening_hours": "Mo-Sa 10:00-21:00; Su 10:00-19:00", "shop": "shoes"}}, {"type": "Feature", "id": 5745965499, "geometry": {"type": "Point", "coordinates": [-122.465688, 47.216296]}, "properties": {"brand": "claire's", "brand:wikidata": "Q2974996", "brand:wikipedia": "en:Claire's", "name": "claire's", "opening_hours": "Mo-Sa 10:00-21:00; Su 10:00-19:00", "shop": "fashion_accessories"}}, {"type": "Feature", "id": 5745965500, "geometry": {"type": "Point", "coordinates": [-122.465828, 47.216714]}, "properties": {}}, {"type": "Feature", "id": 5745965501, "geometry": {"type": "Point", "coordinates": [-122.465823, 47.216197]}, "properties": {}}, {"type": "Feature", "id": 5745965502, "geometry": {"type": "Point", "coordinates": [-122.466383, 47.216103]}, "properties": {"brand": "Build-A-Bear Workshop", "brand:wikidata": "Q1002992", "brand:wikipedia": "en:Build-A-Bear Workshop", "name": "Build-A-Bear Workshop", "opening_hours": "Mo-Sa 10:00-21:00; Su 10:00-19:00", "shop": "toys"}}, {"type": "Feature", "id": 5745965503, "geometry": {"type": "Point", "coordinates": [-122.46659, 47.216103]}, "properties": {"brand": "Zumiez", "brand:wikidata": "Q8075252", "brand:wikipedia": "en:Zumiez", "name": "Zumiez", "opening_hours": "Mo-Sa 10:00-21:00; Su 10:00-19:00", "shop": "clothes"}}, {"type": "Feature", "id": 5745965504, "geometry": {"type": "Point", "coordinates": [-122.466729, 47.216105]}, "properties": {"brand": "Forever 21", "brand:wikidata": "Q1060537", "brand:wikipedia": "en:Forever 21", "name": "Forever 21", "opening_hours": "Mo-Sa 10:00-21:00; Su 10:00-19:00", "shop": "clothes"}}, {"type": "Feature", "id": 5745965505, "geometry": {"type": "Point", "coordinates": [-122.46689, 47.216099]}, "properties": {"brand": "Lids", "brand:wikidata": "Q19841609", "brand:wikipedia": "en:Lids (store)", "clothes": "hats", "name": "Lids", "opening_hours": "Mo-Sa 10:00-21:00; Su 10:00-19:00", "shop": "clothes"}}, {"type": "Feature", "id": 5745965506, "geometry": {"type": "Point", "coordinates": [-122.467059, 47.216096]}, "properties": {"brand": "Icing", "brand:wikidata": "Q108410029", "name": "Icing", "opening_hours": "Mo-Sa 10:00-21:00; Su 10:00-19:00", "shop": "jewelry"}}, {"type": "Feature", "id": 5745965507, "geometry": {"type": "Point", "coordinates": [-122.467174, 47.216096]}, "properties": {"amenity": "cafe", "brand": "Starbucks", "brand:wikidata": "Q37158", "brand:wikipedia": "en:Starbucks", "contact:website": "https://www.starbucks.com/store-locator/store/15223/tacoma-mall-4502-south-steel-street-tacoma-wa-984097242-us", "cuisine": "coffee_shop", "name": "Starbucks", "official_name": "Starbucks Coffee", "opening_hours": "Mo-Sa 10:00-21:00; Su 10:00-19:00", "takeaway": "yes"}}, {"type": "Feature", "id": 5745965508, "geometry": {"type": "Point", "coordinates": [-122.467394, 47.216041]}, "properties": {"branch": "Jewelers", "brand": "Zales", "brand:wikidata": "Q8065305", "brand:wikipedia": "en:Zale Corporation", "name": "Zales", "official_name": "Zales The Diamond Store", "opening_hours": "Mo-Sa 10:00-21:00; Su 10:00-19:00", "shop": "jewelry"}}, {"type": "Feature", "id": 5745965509, "geometry": {"type": "Point", "coordinates": [-122.467389, 47.215948]}, "properties": {"brand": "Sprint", "brand:wikidata": "Q301965", "brand:wikipedia": "en:Sprint Corporation", "name": "Sprint", "opening_hours": "Mo-Sa 10:00-21:00; Su 10:00-19:00", "shop": "mobile_phone"}}, {"type": "Feature", "id": 5745965510, "geometry": {"type": "Point", "coordinates": [-122.467397, 47.215864]}, "properties": {"brand": "GNC", "brand:wikidata": "Q4808595", "brand:wikipedia": "en:GNC (store)", "name": "GNC", "opening_hours": "Mo-Sa 10:00-21:00; Su 10:00-19:00", "shop": "nutrition_supplements"}}, {"type": "Feature", "id": 5745965511, "geometry": {"type": "Point", "coordinates": [-122.467394, 47.215784]}, "properties": {"name": "Just Sports", "opening_hours": "Mo-Sa 10:00-21:00; Su 10:00-19:00", "shop": "sports"}}, {"type": "Feature", "id": 5745965512, "geometry": {"type": "Point", "coordinates": [-122.467428, 47.215656]}, "properties": {"amenity": "fast_food", "brand": "Subway", "brand:wikidata": "Q244457", "brand:wikipedia": "en:Subway (restaurant)", "cuisine": "sandwich", "name": "Subway", "opening_hours": "Mo-Sa 10:00-21:00; Su 10:00-19:00", "takeaway": "yes"}}, {"type": "Feature", "id": 5745965513, "geometry": {"type": "Point", "coordinates": [-122.467548, 47.215655]}, "properties": {"amenity": "fast_food", "brand": "Sarku Japan", "brand:wikidata": "Q7424243", "cuisine": "japanese", "name": "Sarku Japan", "opening_hours": "Mo-Sa 10:00-21:00; Su 10:00-19:00", "takeaway": "yes"}}, {"type": "Feature", "id": 5745965514, "geometry": {"type": "Point", "coordinates": [-122.467641, 47.215544]}, "properties": {"amenity": "fast_food", "cuisine": "chinese", "name": "Flaming Wok", "opening_hours": "Mo-Sa 10:00-21:00; Su 10:00-19:00"}}, {"type": "Feature", "id": 5745965515, "geometry": {"type": "Point", "coordinates": [-122.467642, 47.215493]}, "properties": {"amenity": "fast_food", "brand": "Sbarro", "brand:wikidata": "Q2589409", "brand:wikipedia": "en:Sbarro", "cuisine": "pizza", "name": "Sbarro", "opening_hours": "Mo-Sa 10:00-21:00; Su 10:00-19:00", "takeaway": "yes"}}, {"type": "Feature", "id": 5745965516, "geometry": {"type": "Point", "coordinates": [-122.467633, 47.215359]}, "properties": {"amenity": "fast_food", "brand": "Charleys Philly Steaks", "brand:wikidata": "Q1066777", "brand:wikipedia": "en:Charleys Philly Steaks", "cuisine": "sandwich", "name": "Charleys Philly Steaks", "opening_hours": "Mo-Sa 10:00-21:00; Su 10:00-19:00", "takeaway": "yes"}}, {"type": "Feature", "id": 5745965517, "geometry": {"type": "Point", "coordinates": [-122.467439, 47.215232]}, "properties": {"amenity": "fast_food", "cuisine": "thai", "name": "Ruby Thai", "opening_hours": "Mo-Sa 10:00-21:00; Su 10:00-19:00"}}, {"type": "Feature", "id": 5745965518, "geometry": {"type": "Point", "coordinates": [-122.467412, 47.21544]}, "properties": {"brand": "Cellairis", "brand:wikidata": "Q108410232", "craft": "electronics_repair", "electronics_repair": "phone", "name": "Cellairis", "opening_hours": "Mo-Sa 10:00-21:00; Su 10:00-19:00"}}, {"type": "Feature", "id": 5745965519, "geometry": {"type": "Point", "coordinates": [-122.466386, 47.215247]}, "properties": {"brand": "David's Bridal", "brand:wikidata": "Q5230388", "brand:wikipedia": "en:David's Bridal", "clothes": "wedding", "name": "David's Bridal", "opening_hours": "Mo-Sa 10:00-21:00; Su 10:00-19:00", "shop": "clothes"}}, {"type": "Feature", "id": 5745965520, "geometry": {"type": "Point", "coordinates": [-122.467167, 47.215254]}, "properties": {"name": "ThinkGeek", "opening_hours": "Mo-Sa 10:00-21:00; Su 10:00-19:00", "shop": "toys"}}, {"type": "Feature", "id": 5745965521, "geometry": {"type": "Point", "coordinates": [-122.467169, 47.215338]}, "properties": {"brand": "Foot Locker", "brand:wikidata": "Q63335", "brand:wikipedia": "en:Foot Locker", "name": "Foot Locker", "opening_hours": "Mo-Sa 10:00-21:00; Su 10:00-19:00", "shop": "shoes"}}, {"type": "Feature", "id": 5745965522, "geometry": {"type": "Point", "coordinates": [-122.467163, 47.215438]}, "properties": {"brand": "Maurices", "brand:wikidata": "Q6793571", "brand:wikipedia": "en:Maurices", "clothes": "women", "name": "Maurices", "opening_hours": "Mo-Sa 10:00-21:00; Su 10:00-19:00", "shop": "clothes"}}, {"type": "Feature", "id": 5745965523, "geometry": {"type": "Point", "coordinates": [-122.467166, 47.215544]}, "properties": {"brand": "Finish Line", "brand:wikidata": "Q5450341", "brand:wikipedia": "en:Finish Line, Inc.", "name": "Finish Line", "opening_hours": "Mo-Sa 10:00-21:00; Su 10:00-19:00", "shop": "sports"}}, {"type": "Feature", "id": 5745965524, "geometry": {"type": "Point", "coordinates": [-122.467164, 47.215646]}, "properties": {"brand": "PacSun", "brand:wikidata": "Q7121857", "brand:wikipedia": "en:PacSun", "name": "PacSun", "opening_hours": "Mo-Sa 10:00-21:00; Su 10:00-19:00", "shop": "clothes"}}, {"type": "Feature", "id": 5745965525, "geometry": {"type": "Point", "coordinates": [-122.467327, 47.216642]}, "properties": {}}, {"type": "Feature", "id": 5745965526, "geometry": {"type": "Point", "coordinates": [-122.467325, 47.216194]}, "properties": {}}, {"type": "Feature", "id": 5745965527, "geometry": {"type": "Point", "coordinates": [-122.467274, 47.216194]}, "properties": {}}, {"type": "Feature", "id": 5745965531, "geometry": {"type": "Point", "coordinates": [-122.46528, 47.216185]}, "properties": {}}, {"type": "Feature", "id": 5745965532, "geometry": {"type": "Point", "coordinates": [-122.465697, 47.216185]}, "properties": {}}, {"type": "Feature", "id": 5745965533, "geometry": {"type": "Point", "coordinates": [-122.466166, 47.216058]}, "properties": {}}, {"type": "Feature", "id": 5745965534, "geometry": {"type": "Point", "coordinates": [-122.466168, 47.215176]}, "properties": {}}, {"type": "Feature", "id": 5745965535, "geometry": {"type": "Point", "coordinates": [-122.469251, 47.215573]}, "properties": {}}, {"type": "Feature", "id": 5745965536, "geometry": {"type": "Point", "coordinates": [-122.469299, 47.215573]}, "properties": {}}, {"type": "Feature", "id": 5745965537, "geometry": {"type": "Point", "coordinates": [-122.469298, 47.215649]}, "properties": {}}, {"type": "Feature", "id": 5745965538, "geometry": {"type": "Point", "coordinates": [-122.469641, 47.215651]}, "properties": {}}, {"type": "Feature", "id": 5745965539, "geometry": {"type": "Point", "coordinates": [-122.469637, 47.215962]}, "properties": {}}, {"type": "Feature", "id": 5745965540, "geometry": {"type": "Point", "coordinates": [-122.469927, 47.215964]}, "properties": {}}, {"type": "Feature", "id": 5745965541, "geometry": {"type": "Point", "coordinates": [-122.468091, 47.216559]}, "properties": {}}, {"type": "Feature", "id": 5745965542, "geometry": {"type": "Point", "coordinates": [-122.468383, 47.21656]}, "properties": {}}, {"type": "Feature", "id": 5745965543, "geometry": {"type": "Point", "coordinates": [-122.468383, 47.216226]}, "properties": {}}, {"type": "Feature", "id": 5745965544, "geometry": {"type": "Point", "coordinates": [-122.469258, 47.216227]}, "properties": {}}, {"type": "Feature", "id": 5745965545, "geometry": {"type": "Point", "coordinates": [-122.46528, 47.216198]}, "properties": {}}, {"type": "Feature", "id": 5745965546, "geometry": {"type": "Point", "coordinates": [-122.468199, 47.216192]}, "properties": {}}, {"type": "Feature", "id": 5745965547, "geometry": {"type": "Point", "coordinates": [-122.468813, 47.216114]}, "properties": {}}, {"type": "Feature", "id": 5745965548, "geometry": {"type": "Point", "coordinates": [-122.470997, 47.216123]}, "properties": {}}, {"type": "Feature", "id": 5745965549, "geometry": {"type": "Point", "coordinates": [-122.471112, 47.216094]}, "properties": {}}, {"type": "Feature", "id": 5745965550, "geometry": {"type": "Point", "coordinates": [-122.471356, 47.216097]}, "properties": {}}, {"type": "Feature", "id": 5745965831, "geometry": {"type": "Point", "coordinates": [-122.467275, 47.215178]}, "properties": {"entrance": "yes"}}, {"type": "Feature", "id": 5745965832, "geometry": {"type": "Point", "coordinates": [-122.468198, 47.215137]}, "properties": {}}, {"type": "Feature", "id": 5745965833, "geometry": {"type": "Point", "coordinates": [-122.46811, 47.215091]}, "properties": {}}, {"type": "Feature", "id": 5745965834, "geometry": {"type": "Point", "coordinates": [-122.468693, 47.21548]}, "properties": {}}, {"type": "Feature", "id": 5745965835, "geometry": {"type": "Point", "coordinates": [-122.468618, 47.215387]}, "properties": {}}, {"type": "Feature", "id": 5745965836, "geometry": {"type": "Point", "coordinates": [-122.468708, 47.215441]}, "properties": {}}, {"type": "Feature", "id": 5745965837, "geometry": {"type": "Point", "coordinates": [-122.468705, 47.215464]}, "properties": {}}, {"type": "Feature", "id": 5745965838, "geometry": {"type": "Point", "coordinates": [-122.468645, 47.215389]}, "properties": {}}, {"type": "Feature", "id": 5745965839, "geometry": {"type": "Point", "coordinates": [-122.468676, 47.2154]}, "properties": {}}, {"type": "Feature", "id": 5745965840, "geometry": {"type": "Point", "coordinates": [-122.468698, 47.215418]}, "properties": {}}, {"type": "Feature", "id": 5745965841, "geometry": {"type": "Point", "coordinates": [-122.46819, 47.215109]}, "properties": {}}, {"type": "Feature", "id": 5745965842, "geometry": {"type": "Point", "coordinates": [-122.468199, 47.215129]}, "properties": {}}, {"type": "Feature", "id": 5745965843, "geometry": {"type": "Point", "coordinates": [-122.468111, 47.215091]}, "properties": {}}, {"type": "Feature", "id": 5745965844, "geometry": {"type": "Point", "coordinates": [-122.468141, 47.215088]}, "properties": {}}, {"type": "Feature", "id": 5745965845, "geometry": {"type": "Point", "coordinates": [-122.468169, 47.215095]}, "properties": {}}, {"type": "Feature", "id": 5745965846, "geometry": {"type": "Point", "coordinates": [-122.468041, 47.215035]}, "properties": {}}, {"type": "Feature", "id": 5745965847, "geometry": {"type": "Point", "coordinates": [-122.468024, 47.215039]}, "properties": {}}, {"type": "Feature", "id": 5745965848, "geometry": {"type": "Point", "coordinates": [-122.468392, 47.215222]}, "properties": {}}, {"type": "Feature", "id": 5745965849, "geometry": {"type": "Point", "coordinates": [-122.468385, 47.21523]}, "properties": {}}, {"type": "Feature", "id": 5745965850, "geometry": {"type": "Point", "coordinates": [-122.468611, 47.215379]}, "properties": {}}, {"type": "Feature", "id": 5745965851, "geometry": {"type": "Point", "coordinates": [-122.468615, 47.215347]}, "properties": {}}, {"type": "Feature", "id": 5745965852, "geometry": {"type": "Point", "coordinates": [-122.467999, 47.215416]}, "properties": {}}, {"type": "Feature", "id": 5745965853, "geometry": {"type": "Point", "coordinates": [-122.467963, 47.215125]}, "properties": {}}, {"type": "Feature", "id": 5745965854, "geometry": {"type": "Point", "coordinates": [-122.467939, 47.215112]}, "properties": {}}, {"type": "Feature", "id": 5745965855, "geometry": {"type": "Point", "coordinates": [-122.46794, 47.215066]}, "properties": {}}, {"type": "Feature", "id": 5745965856, "geometry": {"type": "Point", "coordinates": [-122.46791, 47.215077]}, "properties": {}}, {"type": "Feature", "id": 5745965857, "geometry": {"type": "Point", "coordinates": [-122.467911, 47.214979]}, "properties": {}}, {"type": "Feature", "id": 5745965858, "geometry": {"type": "Point", "coordinates": [-122.46793, 47.214988]}, "properties": {}}, {"type": "Feature", "id": 5745965859, "geometry": {"type": "Point", "coordinates": [-122.467931, 47.214973]}, "properties": {}}, {"type": "Feature", "id": 5745965874, "geometry": {"type": "Point", "coordinates": [-122.466168, 47.216631]}, "properties": {}}, {"type": "Feature", "id": 5745965875, "geometry": {"type": "Point", "coordinates": [-122.466168, 47.21664]}, "properties": {}}, {"type": "Feature", "id": 5745965876, "geometry": {"type": "Point", "coordinates": [-122.468039, 47.216643]}, "properties": {}}, {"type": "Feature", "id": 5745965877, "geometry": {"type": "Point", "coordinates": [-122.468039, 47.216598]}, "properties": {}}, {"type": "Feature", "id": 5745965878, "geometry": {"type": "Point", "coordinates": [-122.469549, 47.216556]}, "properties": {}}, {"type": "Feature", "id": 5745965879, "geometry": {"type": "Point", "coordinates": [-122.469258, 47.216556]}, "properties": {}}, {"type": "Feature", "id": 5745965880, "geometry": {"type": "Point", "coordinates": [-122.469851, 47.216523]}, "properties": {}}, {"type": "Feature", "id": 5745965881, "geometry": {"type": "Point", "coordinates": [-122.469851, 47.216545]}, "properties": {}}, {"type": "Feature", "id": 5745965882, "geometry": {"type": "Point", "coordinates": [-122.469983, 47.216545]}, "properties": {}}, {"type": "Feature", "id": 5745965883, "geometry": {"type": "Point", "coordinates": [-122.469983, 47.216537]}, "properties": {}}, {"type": "Feature", "id": 5745965884, "geometry": {"type": "Point", "coordinates": [-122.470964, 47.216538]}, "properties": {}}, {"type": "Feature", "id": 5745965885, "geometry": {"type": "Point", "coordinates": [-122.470964, 47.216526]}, "properties": {}}, {"type": "Feature", "id": 5745965886, "geometry": {"type": "Point", "coordinates": [-122.471101, 47.216427]}, "properties": {}}, {"type": "Feature", "id": 5745965887, "geometry": {"type": "Point", "coordinates": [-122.471101, 47.216375]}, "properties": {}}, {"type": "Feature", "id": 5745965888, "geometry": {"type": "Point", "coordinates": [-122.471354, 47.21647]}, "properties": {}}, {"type": "Feature", "id": 5745965889, "geometry": {"type": "Point", "coordinates": [-122.471471, 47.21647]}, "properties": {}}, {"type": "Feature", "id": 5745965890, "geometry": {"type": "Point", "coordinates": [-122.471471, 47.216476]}, "properties": {}}, {"type": "Feature", "id": 5745965891, "geometry": {"type": "Point", "coordinates": [-122.47178, 47.216477]}, "properties": {}}, {"type": "Feature", "id": 5745965892, "geometry": {"type": "Point", "coordinates": [-122.47178, 47.216487]}, "properties": {}}, {"type": "Feature", "id": 5745965893, "geometry": {"type": "Point", "coordinates": [-122.47203, 47.216487]}, "properties": {}}, {"type": "Feature", "id": 5745965894, "geometry": {"type": "Point", "coordinates": [-122.47203, 47.216473]}, "properties": {}}, {"type": "Feature", "id": 5745965895, "geometry": {"type": "Point", "coordinates": [-122.472033, 47.215709]}, "properties": {}}, {"type": "Feature", "id": 5745965896, "geometry": {"type": "Point", "coordinates": [-122.472033, 47.215701]}, "properties": {}}, {"type": "Feature", "id": 5745965897, "geometry": {"type": "Point", "coordinates": [-122.471774, 47.2157]}, "properties": {}}, {"type": "Feature", "id": 5745965898, "geometry": {"type": "Point", "coordinates": [-122.471774, 47.215711]}, "properties": {}}, {"type": "Feature", "id": 5745965899, "geometry": {"type": "Point", "coordinates": [-122.471478, 47.215711]}, "properties": {}}, {"type": "Feature", "id": 5745965900, "geometry": {"type": "Point", "coordinates": [-122.471478, 47.21572]}, "properties": {}}, {"type": "Feature", "id": 5745966028, "geometry": {"type": "Point", "coordinates": [-122.468722, 47.21574]}, "properties": {}}, {"type": "Feature", "id": 5745966029, "geometry": {"type": "Point", "coordinates": [-122.468698, 47.21574]}, "properties": {}}, {"type": "Feature", "id": 5745966030, "geometry": {"type": "Point", "coordinates": [-122.468698, 47.215764]}, "properties": {}}, {"type": "Feature", "id": 5745966031, "geometry": {"type": "Point", "coordinates": [-122.468723, 47.215764]}, "properties": {}}, {"type": "Feature", "id": 5745966032, "geometry": {"type": "Point", "coordinates": [-122.468723, 47.215746]}, "properties": {}}, {"type": "Feature", "id": 5745966033, "geometry": {"type": "Point", "coordinates": [-122.468909, 47.215746]}, "properties": {}}, {"type": "Feature", "id": 5745966034, "geometry": {"type": "Point", "coordinates": [-122.468909, 47.215764]}, "properties": {}}, {"type": "Feature", "id": 5745966035, "geometry": {"type": "Point", "coordinates": [-122.468975, 47.215764]}, "properties": {}}, {"type": "Feature", "id": 5745966036, "geometry": {"type": "Point", "coordinates": [-122.468975, 47.215717]}, "properties": {}}, {"type": "Feature", "id": 5745966037, "geometry": {"type": "Point", "coordinates": [-122.468077, 47.215456]}, "properties": {}}, {"type": "Feature", "id": 5745966038, "geometry": {"type": "Point", "coordinates": [-122.468076, 47.215635]}, "properties": {}}, {"type": "Feature", "id": 6724964586, "geometry": {"type": "Point", "coordinates": [-122.467427, 47.21659]}, "properties": {"addr:housenumber": "4502", "addr:street": "South Steele Street", "addr:unit": "501A", "amenity": "restaurant", "cuisine": "japanese;ramen", "name": "Kizuki Ramen and Izakaya", "website": "https://www.kizuki.com/locations/tacoma-mall/"}}, {"type": "Feature", "id": 9987345275, "geometry": {"type": "Point", "coordinates": [-122.468094, 47.215081]}, "properties": {}}, {"type": "Feature", "id": 9987345288, "geometry": {"type": "Point", "coordinates": [-122.465282, 47.215409]}, "properties": {}}, {"type": "Feature", "id": 9987345299, "geometry": {"type": "Point", "coordinates": [-122.46528, 47.216172]}, "properties": {}}, {"type": "Feature", "id": 9989447698, "geometry": {"type": "Point", "coordinates": [-122.466841, 47.215177]}, "properties": {}}, {"type": "Feature", "id": 9993014856, "geometry": {"type": "Point", "coordinates": [-122.468721, 47.215707]}, "properties": {}}, {"type": "Feature", "id": 9993014890, "geometry": {"type": "Point", "coordinates": [-122.472378, 47.215931]}, "properties": {}}, {"type": "Feature", "id": 9993091130, "geometry": {"type": "Point", "coordinates": [-122.471423, 47.21647]}, "properties": {}}, {"type": "Feature", "id": 9993091135, "geometry": {"type": "Point", "coordinates": [-122.470993, 47.2165]}, "properties": {}}, {"type": "Feature", "id": 9993091152, "geometry": {"type": "Point", "coordinates": [-122.470319, 47.215647]}, "properties": {}}, {"type": "Feature", "id": 11245934178, "geometry": {"type": "Point", "coordinates": [-122.471254, 47.216183]}, "properties": {"addr:housenumber": "4502", "addr:street": "South Steele Street", "addr:unit": "1171", "name": "Couple of Socks", "shop": "clothes", "website": "https://coupleofsocks.com"}}]}