{"type": "FeatureCollection", "features": [{"type": "Feature", "id": 1249285764, "geometry": {"type": "Point", "coordinates": [-122.518749, 47.625236]}, "properties": {"addr:housenumber": "278", "addr:street": "Winslow Way East", "name": "Blinx", "shop": "clothes"}}, {"type": "Feature", "id": 1249286721, "geometry": {"type": "Point", "coordinates": [-122.518905, 47.625167]}, "properties": {"addr:housenumber": "278", "addr:street": "Winslow Way East", "addr:unit": "106", "level": "0", "name": "Eagle Harbor", "shop": "wine"}}, {"type": "Feature", "id": 2144866336, "geometry": {"type": "Point", "coordinates": [-122.518486, 47.624948]}, "properties": {}}, {"type": "Feature", "id": 2144866351, "geometry": {"type": "Point", "coordinates": [-122.518486, 47.62523]}, "properties": {}}, {"type": "Feature", "id": 3150111275, "geometry": {"type": "Point", "coordinates": [-122.51926, 47.625307]}, "properties": {}}, {"type": "Feature", "id": 3150111276, "geometry": {"type": "Point", "coordinates": [-122.519057, 47.625311]}, "properties": {}}, {"type": "Feature", "id": 3150111277, "geometry": {"type": "Point", "coordinates": [-122.519057, 47.625351]}, "properties": {}}, {"type": "Feature", "id": 3150111278, "geometry": {"type": "Point", "coordinates": [-122.518966, 47.625351]}, "properties": {}}, {"type": "Feature", "id": 3150111279, "geometry": {"type": "Point", "coordinates": [-122.518966, 47.625261]}, "properties": {}}, {"type": "Feature", "id": 3150111280, "geometry": {"type": "Point", "coordinates": [-122.518486, 47.625279]}, "properties": {}}, {"type": "Feature", "id": 4934468584, "geometry": {"type": "Point", "coordinates": [-122.519169, 47.625197]}, "properties": {}}, {"type": "Feature", "id": 4934468585, "geometry": {"type": "Point", "coordinates": [-122.519058, 47.625142]}, "properties": {}}, {"type": "Feature", "id": 4934468586, "geometry": {"type": "Point", "coordinates": [-122.518897, 47.625142]}, "properties": {}}, {"type": "Feature", "id": 4934468587, "geometry": {"type": "Point", "coordinates": [-122.518897, 47.624947]}, "properties": {}}, {"type": "Feature", "id": 4934468591, "geometry": {"type": "Point", "coordinates": [-122.519058, 47.625197]}, "properties": {}}, {"type": "Feature", "id": 5300134614, "geometry": {"type": "Point", "coordinates": [-122.51863, 47.625082]}, "properties": {"addr:housenumber": "278", "addr:street": "Winslow Way East", "addr:unit": "202", "description": "Photo Gallery of Steven Fey at Winslow Mall", "level": "1", "name": "Steven Fey Photography Gallery", "tourism": "gallery", "website": "https://www.stevenfeyphotography.com"}}, {"type": "Feature", "id": 6953020885, "geometry": {"type": "Point", "coordinates": [-122.519259, 47.625197]}, "properties": {}}, {"type": "Feature", "id": 9609715329, "geometry": {"type": "Point", "coordinates": [-122.518677, 47.625003]}, "properties": {"addr:housenumber": "278", "addr:street": "Winslow Way East", "addr:unit": "101", "level": "0", "name": "Lollipop", "shop": "clothes"}}, {"type": "Feature", "id": 9609715333, "geometry": {"type": "Point", "coordinates": [-122.518674, 47.62504]}, "properties": {"addr:housenumber": "278", "addr:street": "Winslow Way East", "addr:unit": "103", "name": "Little Island Crafts", "shop": "art_supply"}}, {"type": "Feature", "id": 9609715335, "geometry": {"type": "Point", "coordinates": [-122.518676, 47.625086]}, "properties": {"addr:housenumber": "278", "addr:street": "Winslow Way East", "addr:unit": "105", "level": "0", "name": "Hidden Gem", "shop": "gift"}}, {"type": "Feature", "id": 9609715336, "geometry": {"type": "Point", "coordinates": [-122.518751, 47.625176]}, "properties": {"addr:housenumber": "278", "addr:street": "Winslow Way East", "level": "0", "name": "Covet", "shop": "clothes"}}, {"type": "Feature", "id": 9609715337, "geometry": {"type": "Point", "coordinates": [-122.518767, 47.625033]}, "properties": {"amenity": "cafe", "cuisine": "coffee_shop", "name": "Coquette Bake Shop"}}, {"type": "Feature", "id": 9609715338, "geometry": {"type": "Point", "coordinates": [-122.518674, 47.625134]}, "properties": {"addr:city": "Bainbridge Island", "addr:housenumber": "278", "addr:postcode": "98110", "addr:state": "WA", "addr:street": "Winslow Way East", "addr:unit": "107", "name": "B. I. Barkery", "opening_hours": "Su 10:00-16:00; Mo-Th 11:00-16:00; Fr-Sa 10:00-17:00", "phone": "+1 206-451-4295", "shop": "pet", "website": "https://b-i-barkery.myshopify.com/"}}, {"type": "Feature", "id": 9613352340, "geometry": {"type": "Point", "coordinates": [-122.518629, 47.625042]}, "properties": {"addr:housenumber": "278", "addr:street": "Winslow Way East", "addr:unit": "200", "craft": "sculptor", "level": "1", "name": "Amy Roberts Sculpture", "tourism": "gallery"}}, {"type": "Feature", "id": 9613352341, "geometry": {"type": "Point", "coordinates": [-122.518904, 47.625193]}, "properties": {"inscription": "Remembering the Cantrell-Herren Family; Dwight, Jennifer, Skyler, Cooper", "memorial": "fountain", "start_date": "1997"}}, {"type": "Feature", "id": 10571852353, "geometry": {"type": "Point", "coordinates": [-122.518844, 47.625278]}, "properties": {"entrance": "secondary"}}, {"type": "Feature", "id": 10571852354, "geometry": {"type": "Point", "coordinates": [-122.51884, 47.624947]}, "properties": {"entrance": "main"}}, {"type": "Feature", "id": 11294532101, "geometry": {"type": "Point", "coordinates": [-122.518943, 47.62518]}, "properties": {}}, {"type": "Feature", "id": 11294532102, "geometry": {"type": "Point", "coordinates": [-122.518927, 47.62518]}, "properties": {}}, {"type": "Feature", "id": 11294532103, "geometry": {"type": "Point", "coordinates": [-122.518943, 47.625261]}, "properties": {}}, {"type": "Feature", "id": 11294532104, "geometry": {"type": "Point", "coordinates": [-122.518927, 47.625278]}, "properties": {}}, {"type": "Feature", "id": 11294532105, "geometry": {"type": "Point", "coordinates": [-122.51926, 47.625311]}, "properties": {}}]}