{"type": "FeatureCollection", "features": [{"type": "Feature", "id": 10278936998, "geometry": {"type": "Point", "coordinates": [-122.06242, 48.016137]}, "properties": {}}, {"type": "Feature", "id": 10278936999, "geometry": {"type": "Point", "coordinates": [-122.062218, 48.016134]}, "properties": {}}, {"type": "Feature", "id": 10278937000, "geometry": {"type": "Point", "coordinates": [-122.062237, 48.015608]}, "properties": {}}, {"type": "Feature", "id": 10278937001, "geometry": {"type": "Point", "coordinates": [-122.062439, 48.015611]}, "properties": {}}, {"type": "Feature", "id": 10278937002, "geometry": {"type": "Point", "coordinates": [-122.062384, 48.015669]}, "properties": {"addr:city": "Lake Stevens", "addr:housenumber": "12405", "addr:postcode": "98258", "addr:state": "WA", "addr:street": "20th Street Northeast", "addr:unit": "Ste D", "name": "Lake Market", "payment:cash": "yes", "payment:credit_cards": "yes", "payment:debit_cards": "yes", "phone": "+1-425-377-110184", "sells:tobacco": "yes", "shop": "convenience"}}, {"type": "Feature", "id": 10278937003, "geometry": {"type": "Point", "coordinates": [-122.062401, 48.016002]}, "properties": {"addr:city": "Lake Stevens", "addr:housenumber": "12405", "addr:postcode": "98258", "addr:state": "WA", "addr:street": "20th Street Northeast", "amenity": "fast_food", "cuisine": "pizza", "drive_through": "no", "name": "Sahara Pizza", "phone": "+1-425-335-5000", "website": "https://saharapizza.com/", "website:menu": "https://saharapizza.hungerrush.com/order/menu/1"}}, {"type": "Feature", "id": 10278937004, "geometry": {"type": "Point", "coordinates": [-122.062388, 48.01576]}, "properties": {"addr:city": "Lake Stevens", "addr:housenumber": "12405", "addr:postcode": "98258", "addr:state": "WA", "addr:street": "20th Street Northeast", "addr:unit": "Ste C", "amenity": "restaurant", "cuisine": "asian", "name": "Midori Teriyaki", "phone": "+1-425-377-1220"}}, {"type": "Feature", "id": 10278940120, "geometry": {"type": "Point", "coordinates": [-122.062228, 48.016134]}, "properties": {}}, {"type": "Feature", "id": 10278940121, "geometry": {"type": "Point", "coordinates": [-122.062411, 48.015611]}, "properties": {}}]}